<?xml version="1.0" encoding="UTF-8" standalone="no" ?>
<gpx xmlns="http://www.topografix.com/GPX/1/1" creator="www.plotaroute.com" version="1.1"  xmlns:xsi="http://www.w3.org/2001/XMLSchema-instance" xsi:schemaLocation="http://www.topografix.com/GPX/1/1 http://www.topografix.com/GPX/1/1/gpx.xsd">
<metadata>
<desc>Route created on plotaroute.com</desc>
</metadata>
<trk>
<name>SM26 FM FINAL AFTER MEASURMENT</name>
<trkseg>
<trkpt lat="2.9169" lon="101.685012">
<ele>41</ele>
<time>2026-06-10T00:00:00Z</time></trkpt>
<trkpt lat="2.916122" lon="101.684745">
<ele>37</ele>
<time>2026-06-10T00:00:33Z</time></trkpt>
<trkpt lat="2.916122" lon="101.684745">
<ele>37</ele>
<time>2026-06-10T00:00:33Z</time></trkpt>
<trkpt lat="2.915365" lon="101.684491">
<ele>32</ele>
<time>2026-06-10T00:01:05Z</time></trkpt>
<trkpt lat="2.913712" lon="101.684009">
<ele>36</ele>
<time>2026-06-10T00:02:14Z</time></trkpt>
<trkpt lat="2.91321" lon="101.684873">
<ele>38</ele>
<time>2026-06-10T00:02:54Z</time></trkpt>
<trkpt lat="2.91321" lon="101.684873">
<ele>38</ele>
<time>2026-06-10T00:02:54Z</time></trkpt>
<trkpt lat="2.913018" lon="101.685177">
<ele>39</ele>
<time>2026-06-10T00:03:08Z</time></trkpt>
<trkpt lat="2.91248" lon="101.685953">
<ele>34</ele>
<time>2026-06-10T00:03:46Z</time></trkpt>
<trkpt lat="2.911754" lon="101.686821">
<ele>23</ele>
<time>2026-06-10T00:04:31Z</time></trkpt>
<trkpt lat="2.910941" lon="101.687654">
<ele>25</ele>
<time>2026-06-10T00:05:18Z</time></trkpt>
<trkpt lat="2.90962" lon="101.688924">
<ele>24</ele>
<time>2026-06-10T00:06:31Z</time></trkpt>
<trkpt lat="2.909209" lon="101.689349">
<ele>27</ele>
<time>2026-06-10T00:06:55Z</time></trkpt>
<trkpt lat="2.908898" lon="101.689712">
<ele>29</ele>
<time>2026-06-10T00:07:14Z</time></trkpt>
<trkpt lat="2.908675" lon="101.690127">
<ele>29</ele>
<time>2026-06-10T00:07:33Z</time></trkpt>
<trkpt lat="2.908547" lon="101.690505">
<ele>30</ele>
<time>2026-06-10T00:07:49Z</time></trkpt>
<trkpt lat="2.908444" lon="101.69096">
<ele>31</ele>
<time>2026-06-10T00:08:08Z</time></trkpt>
<trkpt lat="2.908418" lon="101.691303">
<ele>34</ele>
<time>2026-06-10T00:08:22Z</time></trkpt>
<trkpt lat="2.908425" lon="101.691751">
<ele>38</ele>
<time>2026-06-10T00:08:40Z</time></trkpt>
<trkpt lat="2.908497" lon="101.692133">
<ele>40</ele>
<time>2026-06-10T00:08:55Z</time></trkpt>
<trkpt lat="2.909343" lon="101.695201">
<ele>42</ele>
<time>2026-06-10T00:11:02Z</time></trkpt>
<trkpt lat="2.909542" lon="101.695684">
<ele>38</ele>
<time>2026-06-10T00:11:23Z</time></trkpt>
<trkpt lat="2.909753" lon="101.696049">
<ele>37</ele>
<time>2026-06-10T00:11:40Z</time></trkpt>
<trkpt lat="2.909978" lon="101.696351">
<ele>37</ele>
<time>2026-06-10T00:11:55Z</time></trkpt>
<trkpt lat="2.910224" lon="101.696614">
<ele>36</ele>
<time>2026-06-10T00:12:10Z</time></trkpt>
<trkpt lat="2.910509" lon="101.696877">
<ele>33</ele>
<time>2026-06-10T00:12:25Z</time></trkpt>
<trkpt lat="2.912741" lon="101.698746">
<ele>24</ele>
<time>2026-06-10T00:14:22Z</time></trkpt>
<trkpt lat="2.914588" lon="101.700328">
<ele>22</ele>
<time>2026-06-10T00:15:59Z</time></trkpt>
<trkpt lat="2.916039" lon="101.701517">
<ele>28</ele>
<time>2026-06-10T00:17:14Z</time></trkpt>
<trkpt lat="2.916385" lon="101.701733">
<ele>27</ele>
<time>2026-06-10T00:17:31Z</time></trkpt>
<trkpt lat="2.916728" lon="101.701895">
<ele>28</ele>
<time>2026-06-10T00:17:46Z</time></trkpt>
<trkpt lat="2.917077" lon="101.702023">
<ele>32</ele>
<time>2026-06-10T00:18:01Z</time></trkpt>
<trkpt lat="2.91747" lon="101.702107">
<ele>35</ele>
<time>2026-06-10T00:18:17Z</time></trkpt>
<trkpt lat="2.917861" lon="101.702153">
<ele>37</ele>
<time>2026-06-10T00:18:33Z</time></trkpt>
<trkpt lat="2.918519" lon="101.70217">
<ele>41</ele>
<time>2026-06-10T00:18:59Z</time></trkpt>
<trkpt lat="2.919087" lon="101.702155">
<ele>44</ele>
<time>2026-06-10T00:19:22Z</time></trkpt>
<trkpt lat="2.92001" lon="101.702177">
<ele>38</ele>
<time>2026-06-10T00:19:59Z</time></trkpt>
<trkpt lat="2.921829" lon="101.70206">
<ele>35</ele>
<time>2026-06-10T00:21:12Z</time></trkpt>
<trkpt lat="2.922091" lon="101.702005">
<ele>34</ele>
<time>2026-06-10T00:21:23Z</time></trkpt>
<trkpt lat="2.922518" lon="101.701957">
<ele>33</ele>
<time>2026-06-10T00:21:40Z</time></trkpt>
<trkpt lat="2.923658" lon="101.701957">
<ele>32</ele>
<time>2026-06-10T00:22:26Z</time></trkpt>
<trkpt lat="2.924226" lon="101.701991">
<ele>34</ele>
<time>2026-06-10T00:22:48Z</time></trkpt>
<trkpt lat="2.924554" lon="101.702065">
<ele>36</ele>
<time>2026-06-10T00:23:02Z</time></trkpt>
<trkpt lat="2.924955" lon="101.702198">
<ele>39</ele>
<time>2026-06-10T00:23:19Z</time></trkpt>
<trkpt lat="2.924955" lon="101.702198">
<ele>39</ele>
<time>2026-06-10T00:23:19Z</time></trkpt>
<trkpt lat="2.925155" lon="101.702264">
<ele>39</ele>
<time>2026-06-10T00:23:27Z</time></trkpt>
<trkpt lat="2.926159" lon="101.702683">
<ele>43</ele>
<time>2026-06-10T00:24:11Z</time></trkpt>
<trkpt lat="2.925989" lon="101.703781">
<ele>46</ele>
<time>2026-06-10T00:24:55Z</time></trkpt>
<trkpt lat="2.924782" lon="101.703201">
<ele>40</ele>
<time>2026-06-10T00:25:49Z</time></trkpt>
<trkpt lat="2.923443" lon="101.702582">
<ele>36</ele>
<time>2026-06-10T00:26:48Z</time></trkpt>
<trkpt lat="2.923443" lon="101.702582">
<ele>36</ele>
<time>2026-06-10T00:26:48Z</time></trkpt>
<trkpt lat="2.923222" lon="101.70248">
<ele>35</ele>
<time>2026-06-10T00:26:58Z</time></trkpt>
<trkpt lat="2.922788" lon="101.702382">
<ele>36</ele>
<time>2026-06-10T00:27:16Z</time></trkpt>
<trkpt lat="2.922126" lon="101.702373">
<ele>38</ele>
<time>2026-06-10T00:27:42Z</time></trkpt>
<trkpt lat="2.921783" lon="101.702333">
<ele>38</ele>
<time>2026-06-10T00:27:56Z</time></trkpt>
<trkpt lat="2.92159" lon="101.702281">
<ele>38</ele>
<time>2026-06-10T00:28:04Z</time></trkpt>
<trkpt lat="2.920819" lon="101.702332">
<ele>37</ele>
<time>2026-06-10T00:28:35Z</time></trkpt>
<trkpt lat="2.919076" lon="101.70236">
<ele>45</ele>
<time>2026-06-10T00:29:45Z</time></trkpt>
<trkpt lat="2.917853" lon="101.702313">
<ele>38</ele>
<time>2026-06-10T00:30:34Z</time></trkpt>
<trkpt lat="2.917446" lon="101.702262">
<ele>36</ele>
<time>2026-06-10T00:30:50Z</time></trkpt>
<trkpt lat="2.917056" lon="101.702159">
<ele>33</ele>
<time>2026-06-10T00:31:06Z</time></trkpt>
<trkpt lat="2.916714" lon="101.702043">
<ele>30</ele>
<time>2026-06-10T00:31:21Z</time></trkpt>
<trkpt lat="2.915968" lon="101.701665">
<ele>29</ele>
<time>2026-06-10T00:31:54Z</time></trkpt>
<trkpt lat="2.913309" lon="101.699398">
<ele>25</ele>
<time>2026-06-10T00:34:14Z</time></trkpt>
<trkpt lat="2.912143" lon="101.698455">
<ele>25</ele>
<time>2026-06-10T00:35:14Z</time></trkpt>
<trkpt lat="2.910315" lon="101.696895">
<ele>36</ele>
<time>2026-06-10T00:36:51Z</time></trkpt>
<trkpt lat="2.909747" lon="101.696307">
<ele>39</ele>
<time>2026-06-10T00:37:23Z</time></trkpt>
<trkpt lat="2.909415" lon="101.695759">
<ele>39</ele>
<time>2026-06-10T00:37:49Z</time></trkpt>
<trkpt lat="2.909316" lon="101.695551">
<ele>40</ele>
<time>2026-06-10T00:37:58Z</time></trkpt>
<trkpt lat="2.909228" lon="101.695316">
<ele>42</ele>
<time>2026-06-10T00:38:08Z</time></trkpt>
<trkpt lat="2.908773" lon="101.69366">
<ele>48</ele>
<time>2026-06-10T00:39:17Z</time></trkpt>
<trkpt lat="2.908706" lon="101.693588">
<ele>49</ele>
<time>2026-06-10T00:39:21Z</time></trkpt>
<trkpt lat="2.908646" lon="101.693491">
<ele>49</ele>
<time>2026-06-10T00:39:26Z</time></trkpt>
<trkpt lat="2.908444" lon="101.692885">
<ele>46</ele>
<time>2026-06-10T00:39:51Z</time></trkpt>
<trkpt lat="2.90825" lon="101.692217">
<ele>45</ele>
<time>2026-06-10T00:40:19Z</time></trkpt>
<trkpt lat="2.908161" lon="101.69186">
<ele>44</ele>
<time>2026-06-10T00:40:34Z</time></trkpt>
<trkpt lat="2.908115" lon="101.691575">
<ele>42</ele>
<time>2026-06-10T00:40:45Z</time></trkpt>
<trkpt lat="2.908099" lon="101.69128">
<ele>39</ele>
<time>2026-06-10T00:40:57Z</time></trkpt>
<trkpt lat="2.907915" lon="101.690708">
<ele>36</ele>
<time>2026-06-10T00:41:21Z</time></trkpt>
<trkpt lat="2.907768" lon="101.690402">
<ele>37</ele>
<time>2026-06-10T00:41:35Z</time></trkpt>
<trkpt lat="2.907758" lon="101.690312">
<ele>36</ele>
<time>2026-06-10T00:41:38Z</time></trkpt>
<trkpt lat="2.907643" lon="101.690095">
<ele>36</ele>
<time>2026-06-10T00:41:48Z</time></trkpt>
<trkpt lat="2.907523" lon="101.689765">
<ele>35</ele>
<time>2026-06-10T00:42:02Z</time></trkpt>
<trkpt lat="2.907452" lon="101.689489">
<ele>35</ele>
<time>2026-06-10T00:42:14Z</time></trkpt>
<trkpt lat="2.907359" lon="101.68902">
<ele>34</ele>
<time>2026-06-10T00:42:33Z</time></trkpt>
<trkpt lat="2.907126" lon="101.687875">
<ele>26</ele>
<time>2026-06-10T00:43:20Z</time></trkpt>
<trkpt lat="2.906935" lon="101.686926">
<ele>20</ele>
<time>2026-06-10T00:43:58Z</time></trkpt>
<trkpt lat="2.90688" lon="101.686852">
<ele>20</ele>
<time>2026-06-10T00:44:02Z</time></trkpt>
<trkpt lat="2.906838" lon="101.68676">
<ele>20</ele>
<time>2026-06-10T00:44:06Z</time></trkpt>
<trkpt lat="2.906752" lon="101.686428">
<ele>21</ele>
<time>2026-06-10T00:44:20Z</time></trkpt>
<trkpt lat="2.906538" lon="101.685913">
<ele>23</ele>
<time>2026-06-10T00:44:42Z</time></trkpt>
<trkpt lat="2.906349" lon="101.685604">
<ele>24</ele>
<time>2026-06-10T00:44:57Z</time></trkpt>
<trkpt lat="2.906131" lon="101.685369">
<ele>24</ele>
<time>2026-06-10T00:45:09Z</time></trkpt>
<trkpt lat="2.905939" lon="101.68521">
<ele>25</ele>
<time>2026-06-10T00:45:19Z</time></trkpt>
<trkpt lat="2.905618" lon="101.685005">
<ele>25</ele>
<time>2026-06-10T00:45:35Z</time></trkpt>
<trkpt lat="2.90539" lon="101.684898">
<ele>25</ele>
<time>2026-06-10T00:45:45Z</time></trkpt>
<trkpt lat="2.905023" lon="101.684769">
<ele>25</ele>
<time>2026-06-10T00:46:00Z</time></trkpt>
<trkpt lat="2.904751" lon="101.684719">
<ele>24</ele>
<time>2026-06-10T00:46:11Z</time></trkpt>
<trkpt lat="2.904477" lon="101.684692">
<ele>24</ele>
<time>2026-06-10T00:46:23Z</time></trkpt>
<trkpt lat="2.904217" lon="101.684698">
<ele>24</ele>
<time>2026-06-10T00:46:33Z</time></trkpt>
<trkpt lat="2.903954" lon="101.684723">
<ele>24</ele>
<time>2026-06-10T00:46:44Z</time></trkpt>
<trkpt lat="2.90375" lon="101.684767">
<ele>24</ele>
<time>2026-06-10T00:46:52Z</time></trkpt>
<trkpt lat="2.903545" lon="101.684837">
<ele>25</ele>
<time>2026-06-10T00:47:01Z</time></trkpt>
<trkpt lat="2.903209" lon="101.685035">
<ele>27</ele>
<time>2026-06-10T00:47:16Z</time></trkpt>
<trkpt lat="2.901975" lon="101.685869">
<ele>25</ele>
<time>2026-06-10T00:48:16Z</time></trkpt>
<trkpt lat="2.900454" lon="101.686844">
<ele>27</ele>
<time>2026-06-10T00:49:28Z</time></trkpt>
<trkpt lat="2.898589" lon="101.688162">
<ele>27</ele>
<time>2026-06-10T00:51:00Z</time></trkpt>
<trkpt lat="2.897515" lon="101.688872">
<ele>25</ele>
<time>2026-06-10T00:51:51Z</time></trkpt>
<trkpt lat="2.897127" lon="101.689035">
<ele>24</ele>
<time>2026-06-10T00:52:08Z</time></trkpt>
<trkpt lat="2.89689" lon="101.689096">
<ele>23</ele>
<time>2026-06-10T00:52:18Z</time></trkpt>
<trkpt lat="2.896636" lon="101.689125">
<ele>22</ele>
<time>2026-06-10T00:52:28Z</time></trkpt>
<trkpt lat="2.895835" lon="101.689145">
<ele>17</ele>
<time>2026-06-10T00:53:00Z</time></trkpt>
<trkpt lat="2.894554" lon="101.68922">
<ele>15</ele>
<time>2026-06-10T00:53:52Z</time></trkpt>
<trkpt lat="2.894149" lon="101.689225">
<ele>15</ele>
<time>2026-06-10T00:54:08Z</time></trkpt>
<trkpt lat="2.893956" lon="101.689205">
<ele>15</ele>
<time>2026-06-10T00:54:16Z</time></trkpt>
<trkpt lat="2.893582" lon="101.68911">
<ele>16</ele>
<time>2026-06-10T00:54:31Z</time></trkpt>
<trkpt lat="2.893395" lon="101.689022">
<ele>16</ele>
<time>2026-06-10T00:54:39Z</time></trkpt>
<trkpt lat="2.893194" lon="101.688901">
<ele>15</ele>
<time>2026-06-10T00:54:49Z</time></trkpt>
<trkpt lat="2.893058" lon="101.688797">
<ele>15</ele>
<time>2026-06-10T00:54:56Z</time></trkpt>
<trkpt lat="2.89269" lon="101.688412">
<ele>13</ele>
<time>2026-06-10T00:55:17Z</time></trkpt>
<trkpt lat="2.891528" lon="101.687083">
<ele>10</ele>
<time>2026-06-10T00:56:28Z</time></trkpt>
<trkpt lat="2.891127" lon="101.686702">
<ele>12</ele>
<time>2026-06-10T00:56:50Z</time></trkpt>
<trkpt lat="2.8909956" lon="101.6865685">
<ele>12</ele>
<time>2026-06-10T00:56:57Z</time></trkpt>
<trkpt lat="2.890735" lon="101.686304">
<ele>13</ele>
<time>2026-06-10T00:57:12Z</time></trkpt>
<trkpt lat="2.8906387" lon="101.6861884">
<ele>14</ele>
<time>2026-06-10T00:57:18Z</time></trkpt>
<trkpt lat="2.890639" lon="101.686188">
<ele>14</ele>
<time>2026-06-10T00:57:18Z</time></trkpt>
<trkpt lat="2.890162" lon="101.685616">
<ele>15</ele>
<time>2026-06-10T00:57:48Z</time></trkpt>
<trkpt lat="2.889516" lon="101.685012">
<ele>17</ele>
<time>2026-06-10T00:58:24Z</time></trkpt>
<trkpt lat="2.888587" lon="101.684138">
<ele>16</ele>
<time>2026-06-10T00:59:15Z</time></trkpt>
<trkpt lat="2.888521" lon="101.68406">
<ele>16</ele>
<time>2026-06-10T00:59:19Z</time></trkpt>
<trkpt lat="2.888521" lon="101.68406">
<ele>16</ele>
<time>2026-06-10T00:59:19Z</time></trkpt>
<trkpt lat="2.888352" lon="101.683829">
<ele>17</ele>
<time>2026-06-10T00:59:30Z</time></trkpt>
<trkpt lat="2.888041" lon="101.68322">
<ele>18</ele>
<time>2026-06-10T00:59:58Z</time></trkpt>
<trkpt lat="2.887978" lon="101.683091">
<ele>19</ele>
<time>2026-06-10T01:00:03Z</time></trkpt>
<trkpt lat="2.888147" lon="101.682934">
<ele>18</ele>
<time>2026-06-10T01:00:13Z</time></trkpt>
<trkpt lat="2.888743" lon="101.6824">
<ele>17</ele>
<time>2026-06-10T01:00:45Z</time></trkpt>
<trkpt lat="2.88883" lon="101.68232">
<ele>18</ele>
<time>2026-06-10T01:00:49Z</time></trkpt>
<trkpt lat="2.889206" lon="101.681985">
<ele>19</ele>
<time>2026-06-10T01:01:10Z</time></trkpt>
<trkpt lat="2.889562" lon="101.6817">
<ele>21</ele>
<time>2026-06-10T01:01:28Z</time></trkpt>
<trkpt lat="2.889947" lon="101.681418">
<ele>27</ele>
<time>2026-06-10T01:01:47Z</time></trkpt>
<trkpt lat="2.889947" lon="101.681418">
<ele>27</ele>
<time>2026-06-10T01:01:47Z</time></trkpt>
<trkpt lat="2.890041" lon="101.68135">
<ele>28</ele>
<time>2026-06-10T01:01:52Z</time></trkpt>
<trkpt lat="2.8908" lon="101.680922">
<ele>43</ele>
<time>2026-06-10T01:02:26Z</time></trkpt>
<trkpt lat="2.891508" lon="101.680603">
<ele>55</ele>
<time>2026-06-10T01:02:58Z</time></trkpt>
<trkpt lat="2.892222" lon="101.680326">
<ele>46</ele>
<time>2026-06-10T01:03:28Z</time></trkpt>
<trkpt lat="2.894337" lon="101.67977">
<ele>35</ele>
<time>2026-06-10T01:04:56Z</time></trkpt>
<trkpt lat="2.894951" lon="101.679522">
<ele>45</ele>
<time>2026-06-10T01:05:22Z</time></trkpt>
<trkpt lat="2.895256" lon="101.679358">
<ele>47</ele>
<time>2026-06-10T01:05:36Z</time></trkpt>
<trkpt lat="2.895732" lon="101.679038">
<ele>46</ele>
<time>2026-06-10T01:05:59Z</time></trkpt>
<trkpt lat="2.89592" lon="101.678858">
<ele>42</ele>
<time>2026-06-10T01:06:10Z</time></trkpt>
<trkpt lat="2.896197" lon="101.678506">
<ele>33</ele>
<time>2026-06-10T01:06:28Z</time></trkpt>
<trkpt lat="2.896349" lon="101.678241">
<ele>31</ele>
<time>2026-06-10T01:06:40Z</time></trkpt>
<trkpt lat="2.896427" lon="101.678088">
<ele>33</ele>
<time>2026-06-10T01:06:47Z</time></trkpt>
<trkpt lat="2.896472" lon="101.677894">
<ele>37</ele>
<time>2026-06-10T01:06:55Z</time></trkpt>
<trkpt lat="2.8975864" lon="101.678226">
<ele>18</ele>
<time>2026-06-10T01:07:41Z</time></trkpt>
<trkpt lat="2.898965" lon="101.678669">
<ele>10</ele>
<time>2026-06-10T01:08:39Z</time></trkpt>
<trkpt lat="2.900228" lon="101.679092">
<ele>14</ele>
<time>2026-06-10T01:09:33Z</time></trkpt>
<trkpt lat="2.901098" lon="101.679401">
<ele>24</ele>
<time>2026-06-10T01:10:10Z</time></trkpt>
<trkpt lat="2.901639" lon="101.679609">
<ele>28</ele>
<time>2026-06-10T01:10:33Z</time></trkpt>
<trkpt lat="2.901788" lon="101.679638">
<ele>28</ele>
<time>2026-06-10T01:10:39Z</time></trkpt>
<trkpt lat="2.90203" lon="101.67965">
<ele>28</ele>
<time>2026-06-10T01:10:49Z</time></trkpt>
<trkpt lat="2.902254" lon="101.679696">
<ele>29</ele>
<time>2026-06-10T01:10:58Z</time></trkpt>
<trkpt lat="2.903034" lon="101.679921">
<ele>28</ele>
<time>2026-06-10T01:11:30Z</time></trkpt>
<trkpt lat="2.903142" lon="101.679786">
<ele>28</ele>
<time>2026-06-10T01:11:37Z</time></trkpt>
<trkpt lat="2.903278" lon="101.679678">
<ele>27</ele>
<time>2026-06-10T01:11:44Z</time></trkpt>
<trkpt lat="2.903433" lon="101.679602">
<ele>27</ele>
<time>2026-06-10T01:11:51Z</time></trkpt>
<trkpt lat="2.903601" lon="101.679562">
<ele>27</ele>
<time>2026-06-10T01:11:58Z</time></trkpt>
<trkpt lat="2.903774" lon="101.679559">
<ele>28</ele>
<time>2026-06-10T01:12:05Z</time></trkpt>
<trkpt lat="2.903944" lon="101.679594">
<ele>28</ele>
<time>2026-06-10T01:12:12Z</time></trkpt>
<trkpt lat="2.904101" lon="101.679665">
<ele>28</ele>
<time>2026-06-10T01:12:19Z</time></trkpt>
<trkpt lat="2.90424" lon="101.679768">
<ele>29</ele>
<time>2026-06-10T01:12:26Z</time></trkpt>
<trkpt lat="2.904353" lon="101.679899">
<ele>28</ele>
<time>2026-06-10T01:12:33Z</time></trkpt>
<trkpt lat="2.904435" lon="101.680052">
<ele>28</ele>
<time>2026-06-10T01:12:40Z</time></trkpt>
<trkpt lat="2.904482" lon="101.680218">
<ele>28</ele>
<time>2026-06-10T01:12:47Z</time></trkpt>
<trkpt lat="2.904492" lon="101.680391">
<ele>28</ele>
<time>2026-06-10T01:12:54Z</time></trkpt>
<trkpt lat="2.90549" lon="101.680702">
<ele>29</ele>
<time>2026-06-10T01:13:35Z</time></trkpt>
<trkpt lat="2.90718" lon="101.681265">
<ele>27</ele>
<time>2026-06-10T01:14:47Z</time></trkpt>
<trkpt lat="2.907296" lon="101.68121">
<ele>27</ele>
<time>2026-06-10T01:14:52Z</time></trkpt>
<trkpt lat="2.907408" lon="101.681137">
<ele>27</ele>
<time>2026-06-10T01:14:57Z</time></trkpt>
<trkpt lat="2.907527" lon="101.680867">
<ele>27</ele>
<time>2026-06-10T01:15:09Z</time></trkpt>
<trkpt lat="2.907643" lon="101.680649">
<ele>28</ele>
<time>2026-06-10T01:15:19Z</time></trkpt>
<trkpt lat="2.907643" lon="101.680649">
<ele>28</ele>
<time>2026-06-10T01:15:19Z</time></trkpt>
<trkpt lat="2.907758" lon="101.680432">
<ele>29</ele>
<time>2026-06-10T01:15:29Z</time></trkpt>
<trkpt lat="2.908065" lon="101.679948">
<ele>29</ele>
<time>2026-06-10T01:15:52Z</time></trkpt>
<trkpt lat="2.908205" lon="101.679728">
<ele>29</ele>
<time>2026-06-10T01:16:02Z</time></trkpt>
<trkpt lat="2.9087" lon="101.679059">
<ele>29</ele>
<time>2026-06-10T01:16:36Z</time></trkpt>
<trkpt lat="2.909105" lon="101.67863">
<ele>33</ele>
<time>2026-06-10T01:16:59Z</time></trkpt>
<trkpt lat="2.909629" lon="101.678187">
<ele>32</ele>
<time>2026-06-10T01:17:27Z</time></trkpt>
<trkpt lat="2.910349" lon="101.677721">
<ele>28</ele>
<time>2026-06-10T01:18:01Z</time></trkpt>
<trkpt lat="2.910566" lon="101.677604">
<ele>27</ele>
<time>2026-06-10T01:18:11Z</time></trkpt>
<trkpt lat="2.911226" lon="101.677301">
<ele>26</ele>
<time>2026-06-10T01:18:40Z</time></trkpt>
<trkpt lat="2.912237" lon="101.676874">
<ele>26</ele>
<time>2026-06-10T01:19:24Z</time></trkpt>
<trkpt lat="2.915069" lon="101.67575">
<ele>24</ele>
<time>2026-06-10T01:21:26Z</time></trkpt>
<trkpt lat="2.915502" lon="101.675527">
<ele>22</ele>
<time>2026-06-10T01:21:46Z</time></trkpt>
<trkpt lat="2.916024" lon="101.675363">
<ele>19</ele>
<time>2026-06-10T01:22:08Z</time></trkpt>
<trkpt lat="2.916547" lon="101.675229">
<ele>17</ele>
<time>2026-06-10T01:22:29Z</time></trkpt>
<trkpt lat="2.917248" lon="101.675103">
<ele>19</ele>
<time>2026-06-10T01:22:58Z</time></trkpt>
<trkpt lat="2.917958" lon="101.675004">
<ele>22</ele>
<time>2026-06-10T01:23:26Z</time></trkpt>
<trkpt lat="2.919386" lon="101.674849">
<ele>25</ele>
<time>2026-06-10T01:24:24Z</time></trkpt>
<trkpt lat="2.920207" lon="101.674777">
<ele>26</ele>
<time>2026-06-10T01:24:57Z</time></trkpt>
<trkpt lat="2.92194" lon="101.674812">
<ele>35</ele>
<time>2026-06-10T01:26:06Z</time></trkpt>
<trkpt lat="2.923644" lon="101.675035">
<ele>33</ele>
<time>2026-06-10T01:27:15Z</time></trkpt>
<trkpt lat="2.925281" lon="101.675385">
<ele>33</ele>
<time>2026-06-10T01:28:22Z</time></trkpt>
<trkpt lat="2.929051" lon="101.676629">
<ele>31</ele>
<time>2026-06-10T01:31:02Z</time></trkpt>
<trkpt lat="2.932729" lon="101.677893">
<ele>36</ele>
<time>2026-06-10T01:33:37Z</time></trkpt>
<trkpt lat="2.935171" lon="101.678966">
<ele>36</ele>
<time>2026-06-10T01:35:24Z</time></trkpt>
<trkpt lat="2.937333" lon="101.679998">
<ele>33</ele>
<time>2026-06-10T01:37:00Z</time></trkpt>
<trkpt lat="2.938227" lon="101.680411">
<ele>39</ele>
<time>2026-06-10T01:37:40Z</time></trkpt>
<trkpt lat="2.939613" lon="101.681146">
<ele>44</ele>
<time>2026-06-10T01:38:43Z</time></trkpt>
<trkpt lat="2.941037" lon="101.68181">
<ele>46</ele>
<time>2026-06-10T01:39:45Z</time></trkpt>
<trkpt lat="2.94511" lon="101.683471">
<ele>37</ele>
<time>2026-06-10T01:42:42Z</time></trkpt>
<trkpt lat="2.947933" lon="101.684585">
<ele>39</ele>
<time>2026-06-10T01:44:43Z</time></trkpt>
<trkpt lat="2.948241" lon="101.684678">
<ele>40</ele>
<time>2026-06-10T01:44:56Z</time></trkpt>
<trkpt lat="2.948598" lon="101.684746">
<ele>39</ele>
<time>2026-06-10T01:45:11Z</time></trkpt>
<trkpt lat="2.948886" lon="101.684773">
<ele>39</ele>
<time>2026-06-10T01:45:22Z</time></trkpt>
<trkpt lat="2.949173" lon="101.684776">
<ele>38</ele>
<time>2026-06-10T01:45:34Z</time></trkpt>
<trkpt lat="2.949416" lon="101.68476">
<ele>40</ele>
<time>2026-06-10T01:45:44Z</time></trkpt>
<trkpt lat="2.949905" lon="101.684679">
<ele>42</ele>
<time>2026-06-10T01:46:03Z</time></trkpt>
<trkpt lat="2.950164" lon="101.684597">
<ele>43</ele>
<time>2026-06-10T01:46:14Z</time></trkpt>
<trkpt lat="2.950537" lon="101.684444">
<ele>44</ele>
<time>2026-06-10T01:46:31Z</time></trkpt>
<trkpt lat="2.950877" lon="101.684279">
<ele>45</ele>
<time>2026-06-10T01:46:46Z</time></trkpt>
<trkpt lat="2.951627" lon="101.683782">
<ele>44</ele>
<time>2026-06-10T01:47:22Z</time></trkpt>
<trkpt lat="2.952274" lon="101.683304">
<ele>46</ele>
<time>2026-06-10T01:47:54Z</time></trkpt>
<trkpt lat="2.952666" lon="101.683013">
<ele>48</ele>
<time>2026-06-10T01:48:13Z</time></trkpt>
<trkpt lat="2.956409" lon="101.680342">
<ele>51</ele>
<time>2026-06-10T01:51:18Z</time></trkpt>
<trkpt lat="2.956409" lon="101.680342">
<ele>51</ele>
<time>2026-06-10T01:51:18Z</time></trkpt>
<trkpt lat="2.957773" lon="101.679374">
<ele>56</ele>
<time>2026-06-10T01:52:25Z</time></trkpt>
<trkpt lat="2.958127" lon="101.679213">
<ele>54</ele>
<time>2026-06-10T01:52:40Z</time></trkpt>
<trkpt lat="2.958296" lon="101.679174">
<ele>53</ele>
<time>2026-06-10T01:52:47Z</time></trkpt>
<trkpt lat="2.958341" lon="101.679327">
<ele>53</ele>
<time>2026-06-10T01:52:54Z</time></trkpt>
<trkpt lat="2.958039" lon="101.679391">
<ele>55</ele>
<time>2026-06-10T01:53:06Z</time></trkpt>
<trkpt lat="2.957818" lon="101.679491">
<ele>56</ele>
<time>2026-06-10T01:53:16Z</time></trkpt>
<trkpt lat="2.955761" lon="101.680956">
<ele>46</ele>
<time>2026-06-10T01:54:57Z</time></trkpt>
<trkpt lat="2.955729" lon="101.681031">
<ele>46</ele>
<time>2026-06-10T01:55:00Z</time></trkpt>
<trkpt lat="2.955686" lon="101.681082">
<ele>46</ele>
<time>2026-06-10T01:55:03Z</time></trkpt>
<trkpt lat="2.955335" lon="101.681405">
<ele>47</ele>
<time>2026-06-10T01:55:22Z</time></trkpt>
<trkpt lat="2.955112" lon="101.681693">
<ele>46</ele>
<time>2026-06-10T01:55:36Z</time></trkpt>
<trkpt lat="2.955002" lon="101.68191">
<ele>45</ele>
<time>2026-06-10T01:55:46Z</time></trkpt>
<trkpt lat="2.954932" lon="101.682104">
<ele>45</ele>
<time>2026-06-10T01:55:54Z</time></trkpt>
<trkpt lat="2.954549" lon="101.68385">
<ele>38</ele>
<time>2026-06-10T01:57:06Z</time></trkpt>
<trkpt lat="2.954511" lon="101.68419">
<ele>37</ele>
<time>2026-06-10T01:57:20Z</time></trkpt>
<trkpt lat="2.954496" lon="101.684573">
<ele>37</ele>
<time>2026-06-10T01:57:35Z</time></trkpt>
<trkpt lat="2.954585" lon="101.685093">
<ele>37</ele>
<time>2026-06-10T01:57:56Z</time></trkpt>
<trkpt lat="2.954673" lon="101.685329">
<ele>38</ele>
<time>2026-06-10T01:58:06Z</time></trkpt>
<trkpt lat="2.954974" lon="101.685998">
<ele>41</ele>
<time>2026-06-10T01:58:36Z</time></trkpt>
<trkpt lat="2.955229" lon="101.686413">
<ele>43</ele>
<time>2026-06-10T01:58:55Z</time></trkpt>
<trkpt lat="2.955458" lon="101.686832">
<ele>44</ele>
<time>2026-06-10T01:59:14Z</time></trkpt>
<trkpt lat="2.955793" lon="101.68779">
<ele>43</ele>
<time>2026-06-10T01:59:55Z</time></trkpt>
<trkpt lat="2.955933" lon="101.688499">
<ele>43</ele>
<time>2026-06-10T02:00:24Z</time></trkpt>
<trkpt lat="2.955956" lon="101.688733">
<ele>41</ele>
<time>2026-06-10T02:00:33Z</time></trkpt>
<trkpt lat="2.955918" lon="101.690519">
<ele>34</ele>
<time>2026-06-10T02:01:45Z</time></trkpt>
<trkpt lat="2.955849" lon="101.691201">
<ele>33</ele>
<time>2026-06-10T02:02:12Z</time></trkpt>
<trkpt lat="2.955736" lon="101.691832">
<ele>31</ele>
<time>2026-06-10T02:02:38Z</time></trkpt>
<trkpt lat="2.955144" lon="101.694526">
<ele>37</ele>
<time>2026-06-10T02:04:28Z</time></trkpt>
<trkpt lat="2.954972" lon="101.69546">
<ele>35</ele>
<time>2026-06-10T02:05:06Z</time></trkpt>
<trkpt lat="2.954546" lon="101.698109">
<ele>30</ele>
<time>2026-06-10T02:06:54Z</time></trkpt>
<trkpt lat="2.954529" lon="101.6982719">
<ele>30</ele>
<time>2026-06-10T02:07:00Z</time></trkpt>
<trkpt lat="2.954512" lon="101.698434">
<ele>31</ele>
<time>2026-06-10T02:07:07Z</time></trkpt>
<trkpt lat="2.954496" lon="101.69886">
<ele>34</ele>
<time>2026-06-10T02:07:24Z</time></trkpt>
<trkpt lat="2.95451" lon="101.699208">
<ele>37</ele>
<time>2026-06-10T02:07:38Z</time></trkpt>
<trkpt lat="2.954574" lon="101.699658">
<ele>36</ele>
<time>2026-06-10T02:07:56Z</time></trkpt>
<trkpt lat="2.954676" lon="101.700076">
<ele>36</ele>
<time>2026-06-10T02:08:13Z</time></trkpt>
<trkpt lat="2.9547388" lon="101.7002633">
<ele>36</ele>
<time>2026-06-10T02:08:21Z</time></trkpt>
<trkpt lat="2.954738" lon="101.700263">
<ele>36</ele>
<time>2026-06-10T02:08:21Z</time></trkpt>
<trkpt lat="2.954786" lon="101.700404">
<ele>37</ele>
<time>2026-06-10T02:08:27Z</time></trkpt>
<trkpt lat="2.954997" lon="101.700602">
<ele>37</ele>
<time>2026-06-10T02:08:39Z</time></trkpt>
<trkpt lat="2.954997" lon="101.700602">
<ele>37</ele>
<time>2026-06-10T02:08:39Z</time></trkpt>
<trkpt lat="2.955072" lon="101.700673">
<ele>38</ele>
<time>2026-06-10T02:08:43Z</time></trkpt>
<trkpt lat="2.955326" lon="101.700833">
<ele>39</ele>
<time>2026-06-10T02:08:55Z</time></trkpt>
<trkpt lat="2.955571" lon="101.700887">
<ele>40</ele>
<time>2026-06-10T02:09:05Z</time></trkpt>
<trkpt lat="2.955895" lon="101.700827">
<ele>41</ele>
<time>2026-06-10T02:09:18Z</time></trkpt>
<trkpt lat="2.956276" lon="101.70057">
<ele>42</ele>
<time>2026-06-10T02:09:36Z</time></trkpt>
<trkpt lat="2.956619" lon="101.700279">
<ele>41</ele>
<time>2026-06-10T02:09:54Z</time></trkpt>
<trkpt lat="2.956818" lon="101.699997">
<ele>38</ele>
<time>2026-06-10T02:10:08Z</time></trkpt>
<trkpt lat="2.956858" lon="101.699686">
<ele>36</ele>
<time>2026-06-10T02:10:21Z</time></trkpt>
<trkpt lat="2.956807" lon="101.699445">
<ele>35</ele>
<time>2026-06-10T02:10:31Z</time></trkpt>
<trkpt lat="2.956664" lon="101.69922">
<ele>34</ele>
<time>2026-06-10T02:10:41Z</time></trkpt>
<trkpt lat="2.95643" lon="101.699087">
<ele>34</ele>
<time>2026-06-10T02:10:52Z</time></trkpt>
<trkpt lat="2.956121" lon="101.69902">
<ele>35</ele>
<time>2026-06-10T02:11:05Z</time></trkpt>
<trkpt lat="2.955939" lon="101.699042">
<ele>36</ele>
<time>2026-06-10T02:11:12Z</time></trkpt>
<trkpt lat="2.954841" lon="101.699417">
<ele>36</ele>
<time>2026-06-10T02:11:59Z</time></trkpt>
<trkpt lat="2.954138" lon="101.699731">
<ele>37</ele>
<time>2026-06-10T02:12:29Z</time></trkpt>
<trkpt lat="2.953562" lon="101.700011">
<ele>37</ele>
<time>2026-06-10T02:12:55Z</time></trkpt>
<trkpt lat="2.952996" lon="101.700259">
<ele>35</ele>
<time>2026-06-10T02:13:20Z</time></trkpt>
<trkpt lat="2.952996" lon="101.700259">
<ele>35</ele>
<time>2026-06-10T02:13:20Z</time></trkpt>
<trkpt lat="2.951913" lon="101.700731">
<ele>33</ele>
<time>2026-06-10T02:14:07Z</time></trkpt>
<trkpt lat="2.951158" lon="101.701135">
<ele>37</ele>
<time>2026-06-10T02:14:41Z</time></trkpt>
<trkpt lat="2.950888" lon="101.701328">
<ele>40</ele>
<time>2026-06-10T02:14:55Z</time></trkpt>
<trkpt lat="2.950065" lon="101.702042">
<ele>51</ele>
<time>2026-06-10T02:15:38Z</time></trkpt>
<trkpt lat="2.94942" lon="101.702405">
<ele>55</ele>
<time>2026-06-10T02:16:08Z</time></trkpt>
<trkpt lat="2.948883" lon="101.702569">
<ele>56</ele>
<time>2026-06-10T02:16:31Z</time></trkpt>
<trkpt lat="2.94797" lon="101.702709">
<ele>59</ele>
<time>2026-06-10T02:17:08Z</time></trkpt>
<trkpt lat="2.947818" lon="101.702784">
<ele>60</ele>
<time>2026-06-10T02:17:14Z</time></trkpt>
<trkpt lat="2.947678" lon="101.7029">
<ele>61</ele>
<time>2026-06-10T02:17:22Z</time></trkpt>
<trkpt lat="2.947506" lon="101.70317">
<ele>61</ele>
<time>2026-06-10T02:17:34Z</time></trkpt>
<trkpt lat="2.94725" lon="101.703775">
<ele>61</ele>
<time>2026-06-10T02:18:01Z</time></trkpt>
<trkpt lat="2.947187" lon="101.703883">
<ele>61</ele>
<time>2026-06-10T02:18:06Z</time></trkpt>
<trkpt lat="2.946908" lon="101.704285">
<ele>58</ele>
<time>2026-06-10T02:18:25Z</time></trkpt>
<trkpt lat="2.946696" lon="101.704489">
<ele>57</ele>
<time>2026-06-10T02:18:37Z</time></trkpt>
<trkpt lat="2.946496" lon="101.704657">
<ele>56</ele>
<time>2026-06-10T02:18:48Z</time></trkpt>
<trkpt lat="2.94613" lon="101.704855">
<ele>56</ele>
<time>2026-06-10T02:19:04Z</time></trkpt>
<trkpt lat="2.945729" lon="101.705058">
<ele>55</ele>
<time>2026-06-10T02:19:22Z</time></trkpt>
<trkpt lat="2.945449" lon="101.705132">
<ele>55</ele>
<time>2026-06-10T02:19:34Z</time></trkpt>
<trkpt lat="2.945224" lon="101.705272">
<ele>55</ele>
<time>2026-06-10T02:19:45Z</time></trkpt>
<trkpt lat="2.944936" lon="101.70542">
<ele>54</ele>
<time>2026-06-10T02:19:57Z</time></trkpt>
<trkpt lat="2.944858" lon="101.705524">
<ele>53</ele>
<time>2026-06-10T02:20:03Z</time></trkpt>
<trkpt lat="2.944818" lon="101.705618">
<ele>53</ele>
<time>2026-06-10T02:20:07Z</time></trkpt>
<trkpt lat="2.944798" lon="101.705782">
<ele>52</ele>
<time>2026-06-10T02:20:13Z</time></trkpt>
<trkpt lat="2.944798" lon="101.705782">
<ele>52</ele>
<time>2026-06-10T02:20:13Z</time></trkpt>
<trkpt lat="2.944728" lon="101.707875">
<ele>61</ele>
<time>2026-06-10T02:21:37Z</time></trkpt>
<trkpt lat="2.944635" lon="101.708567">
<ele>58</ele>
<time>2026-06-10T02:22:05Z</time></trkpt>
<trkpt lat="2.944479" lon="101.709154">
<ele>55</ele>
<time>2026-06-10T02:22:29Z</time></trkpt>
<trkpt lat="2.9442561" lon="101.7097641">
<ele>51</ele>
<time>2026-06-10T02:22:55Z</time></trkpt>
<trkpt lat="2.944256" lon="101.709764">
<ele>51</ele>
<time>2026-06-10T02:22:55Z</time></trkpt>
<trkpt lat="2.944118" lon="101.710142">
<ele>51</ele>
<time>2026-06-10T02:23:12Z</time></trkpt>
<trkpt lat="2.94401" lon="101.71046">
<ele>52</ele>
<time>2026-06-10T02:23:25Z</time></trkpt>
<trkpt lat="2.944031" lon="101.710588">
<ele>53</ele>
<time>2026-06-10T02:23:30Z</time></trkpt>
<trkpt lat="2.944095" lon="101.710674">
<ele>54</ele>
<time>2026-06-10T02:23:34Z</time></trkpt>
<trkpt lat="2.944226" lon="101.710771">
<ele>55</ele>
<time>2026-06-10T02:23:41Z</time></trkpt>
<trkpt lat="2.944469" lon="101.710827">
<ele>55</ele>
<time>2026-06-10T02:23:51Z</time></trkpt>
<trkpt lat="2.944469" lon="101.710827">
<ele>55</ele>
<time>2026-06-10T02:23:51Z</time></trkpt>
<trkpt lat="2.9448" lon="101.710903">
<ele>53</ele>
<time>2026-06-10T02:24:05Z</time></trkpt>
<trkpt lat="2.944956" lon="101.710915">
<ele>53</ele>
<time>2026-06-10T02:24:11Z</time></trkpt>
<trkpt lat="2.945274" lon="101.710906">
<ele>55</ele>
<time>2026-06-10T02:24:24Z</time></trkpt>
<trkpt lat="2.945456" lon="101.710883">
<ele>57</ele>
<time>2026-06-10T02:24:31Z</time></trkpt>
<trkpt lat="2.9455986" lon="101.7108357">
<ele>58</ele>
<time>2026-06-10T02:24:37Z</time></trkpt>
<trkpt lat="2.945599" lon="101.710836">
<ele>58</ele>
<time>2026-06-10T02:24:37Z</time></trkpt>
<trkpt lat="2.946237" lon="101.710554">
<ele>59</ele>
<time>2026-06-10T02:25:05Z</time></trkpt>
<trkpt lat="2.946998" lon="101.710246">
<ele>51</ele>
<time>2026-06-10T02:25:38Z</time></trkpt>
<trkpt lat="2.947288" lon="101.710107">
<ele>46</ele>
<time>2026-06-10T02:25:51Z</time></trkpt>
<trkpt lat="2.947494" lon="101.709974">
<ele>43</ele>
<time>2026-06-10T02:26:01Z</time></trkpt>
<trkpt lat="2.947494" lon="101.709974">
<ele>43</ele>
<time>2026-06-10T02:26:01Z</time></trkpt>
<trkpt lat="2.948033" lon="101.709628">
<ele>46</ele>
<time>2026-06-10T02:26:26Z</time></trkpt>
<trkpt lat="2.948083" lon="101.709615">
<ele>46</ele>
<time>2026-06-10T02:26:28Z</time></trkpt>
<trkpt lat="2.948133" lon="101.709627">
<ele>46</ele>
<time>2026-06-10T02:26:30Z</time></trkpt>
<trkpt lat="2.948173" lon="101.70966">
<ele>46</ele>
<time>2026-06-10T02:26:32Z</time></trkpt>
<trkpt lat="2.948193" lon="101.709707">
<ele>46</ele>
<time>2026-06-10T02:26:34Z</time></trkpt>
<trkpt lat="2.94819" lon="101.709759">
<ele>45</ele>
<time>2026-06-10T02:26:37Z</time></trkpt>
<trkpt lat="2.948157" lon="101.709815">
<ele>45</ele>
<time>2026-06-10T02:26:39Z</time></trkpt>
<trkpt lat="2.948033" lon="101.709877">
<ele>45</ele>
<time>2026-06-10T02:26:45Z</time></trkpt>
<trkpt lat="2.948033" lon="101.709877">
<ele>45</ele>
<time>2026-06-10T02:26:45Z</time></trkpt>
<trkpt lat="2.946851" lon="101.710458">
<ele>54</ele>
<time>2026-06-10T02:27:38Z</time></trkpt>
<trkpt lat="2.946294" lon="101.710699">
<ele>59</ele>
<time>2026-06-10T02:28:02Z</time></trkpt>
<trkpt lat="2.9455169" lon="101.7109839">
<ele>58</ele>
<time>2026-06-10T02:28:35Z</time></trkpt>
<trkpt lat="2.945444" lon="101.711004">
<ele>57</ele>
<time>2026-06-10T02:28:38Z</time></trkpt>
<trkpt lat="2.945218" lon="101.711023">
<ele>56</ele>
<time>2026-06-10T02:28:47Z</time></trkpt>
<trkpt lat="2.944788" lon="101.711025">
<ele>54</ele>
<time>2026-06-10T02:29:04Z</time></trkpt>
<trkpt lat="2.944085" lon="101.710842">
<ele>55</ele>
<time>2026-06-10T02:29:33Z</time></trkpt>
<trkpt lat="2.943931" lon="101.710834">
<ele>54</ele>
<time>2026-06-10T02:29:40Z</time></trkpt>
<trkpt lat="2.943815" lon="101.710859">
<ele>54</ele>
<time>2026-06-10T02:29:44Z</time></trkpt>
<trkpt lat="2.943695" lon="101.710926">
<ele>53</ele>
<time>2026-06-10T02:29:50Z</time></trkpt>
<trkpt lat="2.9433722" lon="101.7115932">
<ele>55</ele>
<time>2026-06-10T02:30:20Z</time></trkpt>
<trkpt lat="2.943193" lon="101.712051">
<ele>53</ele>
<time>2026-06-10T02:30:39Z</time></trkpt>
<trkpt lat="2.943008" lon="101.712667">
<ele>52</ele>
<time>2026-06-10T02:31:05Z</time></trkpt>
<trkpt lat="2.943002" lon="101.713026">
<ele>49</ele>
<time>2026-06-10T02:31:19Z</time></trkpt>
<trkpt lat="2.943023" lon="101.71324">
<ele>48</ele>
<time>2026-06-10T02:31:28Z</time></trkpt>
<trkpt lat="2.943103" lon="101.713381">
<ele>48</ele>
<time>2026-06-10T02:31:34Z</time></trkpt>
<trkpt lat="2.943214" lon="101.713506">
<ele>48</ele>
<time>2026-06-10T02:31:41Z</time></trkpt>
<trkpt lat="2.943353" lon="101.713544">
<ele>49</ele>
<time>2026-06-10T02:31:47Z</time></trkpt>
<trkpt lat="2.944252" lon="101.713607">
<ele>54</ele>
<time>2026-06-10T02:32:23Z</time></trkpt>
<trkpt lat="2.944252" lon="101.713607">
<ele>54</ele>
<time>2026-06-10T02:32:23Z</time></trkpt>
<trkpt lat="2.944414" lon="101.713618">
<ele>55</ele>
<time>2026-06-10T02:32:30Z</time></trkpt>
<trkpt lat="2.944963" lon="101.71359">
<ele>58</ele>
<time>2026-06-10T02:32:52Z</time></trkpt>
<trkpt lat="2.945517" lon="101.713531">
<ele>62</ele>
<time>2026-06-10T02:33:14Z</time></trkpt>
<trkpt lat="2.946257" lon="101.713481">
<ele>62</ele>
<time>2026-06-10T02:33:44Z</time></trkpt>
<trkpt lat="2.947992" lon="101.713195">
<ele>52</ele>
<time>2026-06-10T02:34:54Z</time></trkpt>
<trkpt lat="2.948802" lon="101.713176">
<ele>50</ele>
<time>2026-06-10T02:35:27Z</time></trkpt>
<trkpt lat="2.949411" lon="101.71323">
<ele>50</ele>
<time>2026-06-10T02:35:51Z</time></trkpt>
<trkpt lat="2.950092" lon="101.713364">
<ele>52</ele>
<time>2026-06-10T02:36:19Z</time></trkpt>
<trkpt lat="2.950788" lon="101.713547">
<ele>59</ele>
<time>2026-06-10T02:36:48Z</time></trkpt>
<trkpt lat="2.951721" lon="101.713939">
<ele>61</ele>
<time>2026-06-10T02:37:28Z</time></trkpt>
<trkpt lat="2.952375" lon="101.714238">
<ele>55</ele>
<time>2026-06-10T02:37:57Z</time></trkpt>
<trkpt lat="2.952975" lon="101.714414">
<ele>54</ele>
<time>2026-06-10T02:38:22Z</time></trkpt>
<trkpt lat="2.953487" lon="101.714481">
<ele>53</ele>
<time>2026-06-10T02:38:43Z</time></trkpt>
<trkpt lat="2.954126" lon="101.714464">
<ele>55</ele>
<time>2026-06-10T02:39:08Z</time></trkpt>
<trkpt lat="2.955087" lon="101.714309">
<ele>52</ele>
<time>2026-06-10T02:39:47Z</time></trkpt>
<trkpt lat="2.955835" lon="101.714213">
<ele>53</ele>
<time>2026-06-10T02:40:18Z</time></trkpt>
<trkpt lat="2.95658" lon="101.713894">
<ele>56</ele>
<time>2026-06-10T02:40:50Z</time></trkpt>
<trkpt lat="2.957037" lon="101.713525">
<ele>51</ele>
<time>2026-06-10T02:41:14Z</time></trkpt>
<trkpt lat="2.95735" lon="101.713061">
<ele>49</ele>
<time>2026-06-10T02:41:36Z</time></trkpt>
<trkpt lat="2.957466" lon="101.712661">
<ele>47</ele>
<time>2026-06-10T02:41:53Z</time></trkpt>
<trkpt lat="2.957498" lon="101.712502">
<ele>46</ele>
<time>2026-06-10T02:41:59Z</time></trkpt>
<trkpt lat="2.957569" lon="101.711982">
<ele>46</ele>
<time>2026-06-10T02:42:20Z</time></trkpt>
<trkpt lat="2.957435" lon="101.710635">
<ele>49</ele>
<time>2026-06-10T02:43:14Z</time></trkpt>
<trkpt lat="2.957435" lon="101.710635">
<ele>49</ele>
<time>2026-06-10T02:43:14Z</time></trkpt>
<trkpt lat="2.95682" lon="101.704843">
<ele>49</ele>
<time>2026-06-10T02:47:08Z</time></trkpt>
<trkpt lat="2.956677" lon="101.704296">
<ele>48</ele>
<time>2026-06-10T02:47:30Z</time></trkpt>
<trkpt lat="2.95658" lon="101.704051">
<ele>48</ele>
<time>2026-06-10T02:47:41Z</time></trkpt>
<trkpt lat="2.95658" lon="101.704051">
<ele>48</ele>
<time>2026-06-10T02:47:41Z</time></trkpt>
<trkpt lat="2.956172" lon="101.703112">
<ele>49</ele>
<time>2026-06-10T02:48:22Z</time></trkpt>
<trkpt lat="2.955989" lon="101.702782">
<ele>47</ele>
<time>2026-06-10T02:48:37Z</time></trkpt>
<trkpt lat="2.955148" lon="101.701395">
<ele>41</ele>
<time>2026-06-10T02:49:42Z</time></trkpt>
<trkpt lat="2.9546755" lon="101.7004165">
<ele>37</ele>
<time>2026-06-10T02:50:25Z</time></trkpt>
<trkpt lat="2.954659" lon="101.7003686">
<ele>37</ele>
<time>2026-06-10T02:50:27Z</time></trkpt>
<trkpt lat="2.954567" lon="101.7001">
<ele>36</ele>
<time>2026-06-10T02:50:39Z</time></trkpt>
<trkpt lat="2.954466" lon="101.699702">
<ele>36</ele>
<time>2026-06-10T02:50:55Z</time></trkpt>
<trkpt lat="2.95439" lon="101.699251">
<ele>37</ele>
<time>2026-06-10T02:51:13Z</time></trkpt>
<trkpt lat="2.95437" lon="101.698757">
<ele>33</ele>
<time>2026-06-10T02:51:33Z</time></trkpt>
<trkpt lat="2.954439" lon="101.698094">
<ele>30</ele>
<time>2026-06-10T02:52:00Z</time></trkpt>
<trkpt lat="2.954861" lon="101.695443">
<ele>35</ele>
<time>2026-06-10T02:53:47Z</time></trkpt>
<trkpt lat="2.955031" lon="101.694504">
<ele>35</ele>
<time>2026-06-10T02:54:25Z</time></trkpt>
<trkpt lat="2.955635" lon="101.691801">
<ele>31</ele>
<time>2026-06-10T02:56:16Z</time></trkpt>
<trkpt lat="2.955742" lon="101.69117">
<ele>32</ele>
<time>2026-06-10T02:56:42Z</time></trkpt>
<trkpt lat="2.955809" lon="101.69051">
<ele>34</ele>
<time>2026-06-10T02:57:08Z</time></trkpt>
<trkpt lat="2.955826" lon="101.689981">
<ele>35</ele>
<time>2026-06-10T02:57:30Z</time></trkpt>
<trkpt lat="2.955815" lon="101.688737">
<ele>41</ele>
<time>2026-06-10T02:58:19Z</time></trkpt>
<trkpt lat="2.955793" lon="101.688505">
<ele>42</ele>
<time>2026-06-10T02:58:29Z</time></trkpt>
<trkpt lat="2.955665" lon="101.687825">
<ele>43</ele>
<time>2026-06-10T02:58:56Z</time></trkpt>
<trkpt lat="2.95533" lon="101.686897">
<ele>43</ele>
<time>2026-06-10T02:59:36Z</time></trkpt>
<trkpt lat="2.955108" lon="101.686481">
<ele>42</ele>
<time>2026-06-10T02:59:55Z</time></trkpt>
<trkpt lat="2.954869" lon="101.686082">
<ele>41</ele>
<time>2026-06-10T03:00:13Z</time></trkpt>
<trkpt lat="2.954048" lon="101.685129">
<ele>37</ele>
<time>2026-06-10T03:01:04Z</time></trkpt>
<trkpt lat="2.953172" lon="101.684509">
<ele>37</ele>
<time>2026-06-10T03:01:47Z</time></trkpt>
<trkpt lat="2.952774" lon="101.684312">
<ele>37</ele>
<time>2026-06-10T03:02:05Z</time></trkpt>
<trkpt lat="2.952377" lon="101.684212">
<ele>39</ele>
<time>2026-06-10T03:02:21Z</time></trkpt>
<trkpt lat="2.952091" lon="101.684189">
<ele>40</ele>
<time>2026-06-10T03:02:33Z</time></trkpt>
<trkpt lat="2.951687" lon="101.684249">
<ele>42</ele>
<time>2026-06-10T03:02:49Z</time></trkpt>
<trkpt lat="2.951197" lon="101.684405">
<ele>43</ele>
<time>2026-06-10T03:03:09Z</time></trkpt>
<trkpt lat="2.950742" lon="101.684624">
<ele>42</ele>
<time>2026-06-10T03:03:30Z</time></trkpt>
<trkpt lat="2.950614" lon="101.684641">
<ele>42</ele>
<time>2026-06-10T03:03:35Z</time></trkpt>
<trkpt lat="2.950484" lon="101.684626">
<ele>42</ele>
<time>2026-06-10T03:03:40Z</time></trkpt>
<trkpt lat="2.949939" lon="101.684813">
<ele>42</ele>
<time>2026-06-10T03:04:03Z</time></trkpt>
<trkpt lat="2.949672" lon="101.68487">
<ele>41</ele>
<time>2026-06-10T03:04:14Z</time></trkpt>
<trkpt lat="2.94943" lon="101.684903">
<ele>39</ele>
<time>2026-06-10T03:04:24Z</time></trkpt>
<trkpt lat="2.948887" lon="101.68492">
<ele>38</ele>
<time>2026-06-10T03:04:46Z</time></trkpt>
<trkpt lat="2.948584" lon="101.684897">
<ele>39</ele>
<time>2026-06-10T03:04:58Z</time></trkpt>
<trkpt lat="2.948205" lon="101.684821">
<ele>39</ele>
<time>2026-06-10T03:05:13Z</time></trkpt>
<trkpt lat="2.947879" lon="101.684732">
<ele>39</ele>
<time>2026-06-10T03:05:27Z</time></trkpt>
<trkpt lat="2.944712" lon="101.68347">
<ele>36</ele>
<time>2026-06-10T03:07:44Z</time></trkpt>
<trkpt lat="2.940936" lon="101.681924">
<ele>45</ele>
<time>2026-06-10T03:10:27Z</time></trkpt>
<trkpt lat="2.93944" lon="101.681243">
<ele>42</ele>
<time>2026-06-10T03:11:33Z</time></trkpt>
<trkpt lat="2.938165" lon="101.68054">
<ele>38</ele>
<time>2026-06-10T03:12:31Z</time></trkpt>
<trkpt lat="2.93677" lon="101.67989">
<ele>32</ele>
<time>2026-06-10T03:13:33Z</time></trkpt>
<trkpt lat="2.93677" lon="101.67989">
<ele>32</ele>
<time>2026-06-10T03:13:33Z</time></trkpt>
<trkpt lat="2.934749" lon="101.678929">
<ele>34</ele>
<time>2026-06-10T03:15:03Z</time></trkpt>
<trkpt lat="2.932705" lon="101.678035">
<ele>36</ele>
<time>2026-06-10T03:16:32Z</time></trkpt>
<trkpt lat="2.929059" lon="101.676789">
<ele>32</ele>
<time>2026-06-10T03:19:06Z</time></trkpt>
<trkpt lat="2.92565" lon="101.675648">
<ele>30</ele>
<time>2026-06-10T03:21:30Z</time></trkpt>
<trkpt lat="2.924728" lon="101.675395">
<ele>35</ele>
<time>2026-06-10T03:22:09Z</time></trkpt>
<trkpt lat="2.923625" lon="101.675184">
<ele>35</ele>
<time>2026-06-10T03:22:54Z</time></trkpt>
<trkpt lat="2.921892" lon="101.674936">
<ele>36</ele>
<time>2026-06-10T03:24:04Z</time></trkpt>
<trkpt lat="2.919759" lon="101.674956">
<ele>26</ele>
<time>2026-06-10T03:25:29Z</time></trkpt>
<trkpt lat="2.918868" lon="101.675031">
<ele>25</ele>
<time>2026-06-10T03:26:05Z</time></trkpt>
<trkpt lat="2.917666" lon="101.675183">
<ele>21</ele>
<time>2026-06-10T03:26:54Z</time></trkpt>
<trkpt lat="2.91678" lon="101.675323">
<ele>17</ele>
<time>2026-06-10T03:27:30Z</time></trkpt>
<trkpt lat="2.916035" lon="101.675492">
<ele>19</ele>
<time>2026-06-10T03:28:00Z</time></trkpt>
<trkpt lat="2.915558" lon="101.67565">
<ele>22</ele>
<time>2026-06-10T03:28:20Z</time></trkpt>
<trkpt lat="2.915112" lon="101.675853">
<ele>24</ele>
<time>2026-06-10T03:28:40Z</time></trkpt>
<trkpt lat="2.912271" lon="101.676982">
<ele>26</ele>
<time>2026-06-10T03:30:43Z</time></trkpt>
<trkpt lat="2.910897" lon="101.677564">
<ele>27</ele>
<time>2026-06-10T03:31:42Z</time></trkpt>
<trkpt lat="2.910609" lon="101.677705">
<ele>27</ele>
<time>2026-06-10T03:31:55Z</time></trkpt>
<trkpt lat="2.910448" lon="101.677802">
<ele>28</ele>
<time>2026-06-10T03:32:03Z</time></trkpt>
<trkpt lat="2.909503" lon="101.678519">
<ele>32</ele>
<time>2026-06-10T03:32:50Z</time></trkpt>
<trkpt lat="2.909101" lon="101.678887">
<ele>30</ele>
<time>2026-06-10T03:33:12Z</time></trkpt>
<trkpt lat="2.908734" lon="101.679277">
<ele>28</ele>
<time>2026-06-10T03:33:33Z</time></trkpt>
<trkpt lat="2.908381" lon="101.679759">
<ele>28</ele>
<time>2026-06-10T03:33:57Z</time></trkpt>
<trkpt lat="2.907878" lon="101.680497">
<ele>28</ele>
<time>2026-06-10T03:34:33Z</time></trkpt>
<trkpt lat="2.907626" lon="101.680943">
<ele>27</ele>
<time>2026-06-10T03:34:54Z</time></trkpt>
<trkpt lat="2.907583" lon="101.681044">
<ele>27</ele>
<time>2026-06-10T03:34:58Z</time></trkpt>
<trkpt lat="2.907451" lon="101.68136">
<ele>27</ele>
<time>2026-06-10T03:35:12Z</time></trkpt>
<trkpt lat="2.907273" lon="101.681873">
<ele>27</ele>
<time>2026-06-10T03:35:33Z</time></trkpt>
<trkpt lat="2.907153" lon="101.681835">
<ele>26</ele>
<time>2026-06-10T03:35:39Z</time></trkpt>
<trkpt lat="2.906831" lon="101.681713">
<ele>26</ele>
<time>2026-06-10T03:35:52Z</time></trkpt>
<trkpt lat="2.906831" lon="101.681713">
<ele>26</ele>
<time>2026-06-10T03:35:52Z</time></trkpt>
<trkpt lat="2.9057752" lon="101.681319">
<ele>27</ele>
<time>2026-06-10T03:36:37Z</time></trkpt>
<trkpt lat="2.905776" lon="101.681318">
<ele>27</ele>
<time>2026-06-10T03:36:38Z</time></trkpt>
<trkpt lat="2.90536" lon="101.681164">
<ele>28</ele>
<time>2026-06-10T03:36:55Z</time></trkpt>
<trkpt lat="2.905256" lon="101.681348">
<ele>28</ele>
<time>2026-06-10T03:37:04Z</time></trkpt>
<trkpt lat="2.905015" lon="101.68163">
<ele>28</ele>
<time>2026-06-10T03:37:19Z</time></trkpt>
<trkpt lat="2.904697" lon="101.681891">
<ele>28</ele>
<time>2026-06-10T03:37:35Z</time></trkpt>
<trkpt lat="2.904458" lon="101.68201">
<ele>27</ele>
<time>2026-06-10T03:37:46Z</time></trkpt>
<trkpt lat="2.904146" lon="101.682123">
<ele>26</ele>
<time>2026-06-10T03:37:59Z</time></trkpt>
<trkpt lat="2.903824" lon="101.682159">
<ele>27</ele>
<time>2026-06-10T03:38:12Z</time></trkpt>
<trkpt lat="2.903824" lon="101.682159">
<ele>27</ele>
<time>2026-06-10T03:38:12Z</time></trkpt>
<trkpt lat="2.903519" lon="101.682157">
<ele>28</ele>
<time>2026-06-10T03:38:24Z</time></trkpt>
<trkpt lat="2.903234" lon="101.682108">
<ele>29</ele>
<time>2026-06-10T03:38:36Z</time></trkpt>
<trkpt lat="2.902873" lon="101.681975">
<ele>28</ele>
<time>2026-06-10T03:38:51Z</time></trkpt>
<trkpt lat="2.902741" lon="101.681913">
<ele>28</ele>
<time>2026-06-10T03:38:57Z</time></trkpt>
<trkpt lat="2.902646" lon="101.681844">
<ele>28</ele>
<time>2026-06-10T03:39:02Z</time></trkpt>
<trkpt lat="2.902473" lon="101.681692">
<ele>28</ele>
<time>2026-06-10T03:39:11Z</time></trkpt>
<trkpt lat="2.902304" lon="101.681517">
<ele>27</ele>
<time>2026-06-10T03:39:21Z</time></trkpt>
<trkpt lat="2.902229" lon="101.681437">
<ele>27</ele>
<time>2026-06-10T03:39:25Z</time></trkpt>
<trkpt lat="2.902116" lon="101.68125">
<ele>26</ele>
<time>2026-06-10T03:39:34Z</time></trkpt>
<trkpt lat="2.90201" lon="101.68103">
<ele>26</ele>
<time>2026-06-10T03:39:44Z</time></trkpt>
<trkpt lat="2.90195" lon="101.68085">
<ele>26</ele>
<time>2026-06-10T03:39:51Z</time></trkpt>
<trkpt lat="2.901905" lon="101.680678">
<ele>27</ele>
<time>2026-06-10T03:39:58Z</time></trkpt>
<trkpt lat="2.901883" lon="101.680403">
<ele>27</ele>
<time>2026-06-10T03:40:09Z</time></trkpt>
<trkpt lat="2.901905" lon="101.680137">
<ele>28</ele>
<time>2026-06-10T03:40:20Z</time></trkpt>
<trkpt lat="2.901837" lon="101.679919">
<ele>28</ele>
<time>2026-06-10T03:40:29Z</time></trkpt>
<trkpt lat="2.901785" lon="101.679834">
<ele>28</ele>
<time>2026-06-10T03:40:33Z</time></trkpt>
<trkpt lat="2.901658" lon="101.679721">
<ele>28</ele>
<time>2026-06-10T03:40:40Z</time></trkpt>
<trkpt lat="2.9012445" lon="101.6795843">
<ele>25</ele>
<time>2026-06-10T03:40:58Z</time></trkpt>
<trkpt lat="2.901047" lon="101.679519">
<ele>24</ele>
<time>2026-06-10T03:41:06Z</time></trkpt>
<trkpt lat="2.89893" lon="101.678805">
<ele>11</ele>
<time>2026-06-10T03:42:35Z</time></trkpt>
<trkpt lat="2.898054" lon="101.678505">
<ele>12</ele>
<time>2026-06-10T03:43:13Z</time></trkpt>
<trkpt lat="2.898054" lon="101.678505">
<ele>12</ele>
<time>2026-06-10T03:43:13Z</time></trkpt>
<trkpt lat="2.897098" lon="101.678178">
<ele>23</ele>
<time>2026-06-10T03:43:53Z</time></trkpt>
<trkpt lat="2.896851" lon="101.678143">
<ele>26</ele>
<time>2026-06-10T03:44:03Z</time></trkpt>
<trkpt lat="2.896687" lon="101.678164">
<ele>27</ele>
<time>2026-06-10T03:44:10Z</time></trkpt>
<trkpt lat="2.896586" lon="101.678247">
<ele>27</ele>
<time>2026-06-10T03:44:15Z</time></trkpt>
<trkpt lat="2.896437" lon="101.678404">
<ele>28</ele>
<time>2026-06-10T03:44:24Z</time></trkpt>
<trkpt lat="2.896399" lon="101.678478">
<ele>29</ele>
<time>2026-06-10T03:44:27Z</time></trkpt>
<trkpt lat="2.89615" lon="101.678822">
<ele>36</ele>
<time>2026-06-10T03:44:44Z</time></trkpt>
<trkpt lat="2.895934" lon="101.679059">
<ele>43</ele>
<time>2026-06-10T03:44:57Z</time></trkpt>
<trkpt lat="2.895701" lon="101.679259">
<ele>46</ele>
<time>2026-06-10T03:45:09Z</time></trkpt>
<trkpt lat="2.895394" lon="101.679443">
<ele>45</ele>
<time>2026-06-10T03:45:23Z</time></trkpt>
<trkpt lat="2.894862" lon="101.679722">
<ele>39</ele>
<time>2026-06-10T03:45:47Z</time></trkpt>
<trkpt lat="2.894316" lon="101.679926">
<ele>31</ele>
<time>2026-06-10T03:46:11Z</time></trkpt>
<trkpt lat="2.893896" lon="101.680047">
<ele>26</ele>
<time>2026-06-10T03:46:28Z</time></trkpt>
<trkpt lat="2.89248" lon="101.680403">
<ele>40</ele>
<time>2026-06-10T03:47:27Z</time></trkpt>
<trkpt lat="2.891713" lon="101.68066">
<ele>56</ele>
<time>2026-06-10T03:47:59Z</time></trkpt>
<trkpt lat="2.890846" lon="101.681033">
<ele>42</ele>
<time>2026-06-10T03:48:37Z</time></trkpt>
<trkpt lat="2.89007" lon="101.681497">
<ele>27</ele>
<time>2026-06-10T03:49:13Z</time></trkpt>
<trkpt lat="2.88964" lon="101.681836">
<ele>22</ele>
<time>2026-06-10T03:49:35Z</time></trkpt>
<trkpt lat="2.889283" lon="101.682214">
<ele>20</ele>
<time>2026-06-10T03:49:56Z</time></trkpt>
<trkpt lat="2.889191" lon="101.682358">
<ele>19</ele>
<time>2026-06-10T03:50:03Z</time></trkpt>
<trkpt lat="2.889139" lon="101.682501">
<ele>19</ele>
<time>2026-06-10T03:50:09Z</time></trkpt>
<trkpt lat="2.889122" lon="101.682644">
<ele>19</ele>
<time>2026-06-10T03:50:15Z</time></trkpt>
<trkpt lat="2.889129" lon="101.682761">
<ele>19</ele>
<time>2026-06-10T03:50:19Z</time></trkpt>
<trkpt lat="2.889352" lon="101.683382">
<ele>19</ele>
<time>2026-06-10T03:50:46Z</time></trkpt>
<trkpt lat="2.889624" lon="101.684182">
<ele>15</ele>
<time>2026-06-10T03:51:20Z</time></trkpt>
<trkpt lat="2.889959" lon="101.684969">
<ele>15</ele>
<time>2026-06-10T03:51:54Z</time></trkpt>
<trkpt lat="2.89026" lon="101.685499">
<ele>15</ele>
<time>2026-06-10T03:52:18Z</time></trkpt>
<trkpt lat="2.891235" lon="101.686565">
<ele>11</ele>
<time>2026-06-10T03:53:16Z</time></trkpt>
<trkpt lat="2.891643" lon="101.68695">
<ele>10</ele>
<time>2026-06-10T03:53:39Z</time></trkpt>
<trkpt lat="2.892182" lon="101.687415">
<ele>12</ele>
<time>2026-06-10T03:54:07Z</time></trkpt>
<trkpt lat="2.892637" lon="101.687759">
<ele>13</ele>
<time>2026-06-10T03:54:30Z</time></trkpt>
<trkpt lat="2.893067" lon="101.688109">
<ele>14</ele>
<time>2026-06-10T03:54:52Z</time></trkpt>
<trkpt lat="2.893213" lon="101.688169">
<ele>14</ele>
<time>2026-06-10T03:54:58Z</time></trkpt>
<trkpt lat="2.893801" lon="101.688531">
<ele>14</ele>
<time>2026-06-10T03:55:26Z</time></trkpt>
<trkpt lat="2.893927" lon="101.6886">
<ele>14</ele>
<time>2026-06-10T03:55:32Z</time></trkpt>
<trkpt lat="2.894544" lon="101.688863">
<ele>15</ele>
<time>2026-06-10T03:55:59Z</time></trkpt>
<trkpt lat="2.894796" lon="101.688939">
<ele>16</ele>
<time>2026-06-10T03:56:09Z</time></trkpt>
<trkpt lat="2.895058" lon="101.688995">
<ele>16</ele>
<time>2026-06-10T03:56:20Z</time></trkpt>
<trkpt lat="2.895309" lon="101.689031">
<ele>17</ele>
<time>2026-06-10T03:56:30Z</time></trkpt>
<trkpt lat="2.895572" lon="101.689063">
<ele>17</ele>
<time>2026-06-10T03:56:41Z</time></trkpt>
<trkpt lat="2.895822" lon="101.689067">
<ele>18</ele>
<time>2026-06-10T03:56:51Z</time></trkpt>
<trkpt lat="2.896561" lon="101.689021">
<ele>21</ele>
<time>2026-06-10T03:57:21Z</time></trkpt>
<trkpt lat="2.897015" lon="101.688917">
<ele>23</ele>
<time>2026-06-10T03:57:39Z</time></trkpt>
<trkpt lat="2.897459" lon="101.688765">
<ele>24</ele>
<time>2026-06-10T03:57:58Z</time></trkpt>
<trkpt lat="2.899692" lon="101.687266">
<ele>25</ele>
<time>2026-06-10T03:59:46Z</time></trkpt>
<trkpt lat="2.902148" lon="101.685591">
<ele>25</ele>
<time>2026-06-10T04:01:45Z</time></trkpt>
<trkpt lat="2.902429" lon="101.685392">
<ele>25</ele>
<time>2026-06-10T04:01:59Z</time></trkpt>
<trkpt lat="2.90289" lon="101.685065">
<ele>27</ele>
<time>2026-06-10T04:02:21Z</time></trkpt>
<trkpt lat="2.90289" lon="101.685065">
<ele>27</ele>
<time>2026-06-10T04:02:21Z</time></trkpt>
<trkpt lat="2.903068" lon="101.684939">
<ele>26</ele>
<time>2026-06-10T04:02:30Z</time></trkpt>
<trkpt lat="2.903435" lon="101.684748">
<ele>24</ele>
<time>2026-06-10T04:02:47Z</time></trkpt>
<trkpt lat="2.903867" lon="101.684634">
<ele>23</ele>
<time>2026-06-10T04:03:04Z</time></trkpt>
<trkpt lat="2.904186" lon="101.684589">
<ele>23</ele>
<time>2026-06-10T04:03:17Z</time></trkpt>
<trkpt lat="2.904429" lon="101.684584">
<ele>23</ele>
<time>2026-06-10T04:03:27Z</time></trkpt>
<trkpt lat="2.904737" lon="101.6846">
<ele>23</ele>
<time>2026-06-10T04:03:39Z</time></trkpt>
<trkpt lat="2.905033" lon="101.684658">
<ele>24</ele>
<time>2026-06-10T04:03:52Z</time></trkpt>
<trkpt lat="2.905256" lon="101.684719">
<ele>24</ele>
<time>2026-06-10T04:04:01Z</time></trkpt>
<trkpt lat="2.905645" lon="101.684904">
<ele>25</ele>
<time>2026-06-10T04:04:18Z</time></trkpt>
<trkpt lat="2.906304" lon="101.685335">
<ele>23</ele>
<time>2026-06-10T04:04:50Z</time></trkpt>
<trkpt lat="2.90673" lon="101.685638">
<ele>22</ele>
<time>2026-06-10T04:05:11Z</time></trkpt>
<trkpt lat="2.906913" lon="101.68589">
<ele>21</ele>
<time>2026-06-10T04:05:23Z</time></trkpt>
<trkpt lat="2.906973" lon="101.68603">
<ele>21</ele>
<time>2026-06-10T04:05:29Z</time></trkpt>
<trkpt lat="2.907007" lon="101.68617">
<ele>20</ele>
<time>2026-06-10T04:05:35Z</time></trkpt>
<trkpt lat="2.907183" lon="101.68708">
<ele>21</ele>
<time>2026-06-10T04:06:12Z</time></trkpt>
<trkpt lat="2.907211" lon="101.687295">
<ele>22</ele>
<time>2026-06-10T04:06:21Z</time></trkpt>
<trkpt lat="2.907204" lon="101.687432">
<ele>22</ele>
<time>2026-06-10T04:06:26Z</time></trkpt>
<trkpt lat="2.907175" lon="101.687561">
<ele>23</ele>
<time>2026-06-10T04:06:31Z</time></trkpt>
<trkpt lat="2.907564" lon="101.689424">
<ele>34</ele>
<time>2026-06-10T04:07:48Z</time></trkpt>
<trkpt lat="2.907638" lon="101.689671">
<ele>34</ele>
<time>2026-06-10T04:07:58Z</time></trkpt>
<trkpt lat="2.907722" lon="101.689799">
<ele>34</ele>
<time>2026-06-10T04:08:04Z</time></trkpt>
<trkpt lat="2.907807" lon="101.689889">
<ele>34</ele>
<time>2026-06-10T04:08:09Z</time></trkpt>
<trkpt lat="2.907916" lon="101.689952">
<ele>33</ele>
<time>2026-06-10T04:08:14Z</time></trkpt>
<trkpt lat="2.907981" lon="101.689971">
<ele>33</ele>
<time>2026-06-10T04:08:17Z</time></trkpt>
<trkpt lat="2.907981" lon="101.689971">
<ele>33</ele>
<time>2026-06-10T04:08:17Z</time></trkpt>
<trkpt lat="2.908156" lon="101.689977">
<ele>31</ele>
<time>2026-06-10T04:08:24Z</time></trkpt>
<trkpt lat="2.908216" lon="101.689958">
<ele>31</ele>
<time>2026-06-10T04:08:26Z</time></trkpt>
<trkpt lat="2.908467" lon="101.689801">
<ele>30</ele>
<time>2026-06-10T04:08:38Z</time></trkpt>
<trkpt lat="2.908729" lon="101.689488">
<ele>29</ele>
<time>2026-06-10T04:08:55Z</time></trkpt>
<trkpt lat="2.908923" lon="101.689331">
<ele>28</ele>
<time>2026-06-10T04:09:05Z</time></trkpt>
<trkpt lat="2.909059" lon="101.689282">
<ele>28</ele>
<time>2026-06-10T04:09:10Z</time></trkpt>
<trkpt lat="2.909175" lon="101.689155">
<ele>27</ele>
<time>2026-06-10T04:09:17Z</time></trkpt>
<trkpt lat="2.909523" lon="101.688827">
<ele>24</ele>
<time>2026-06-10T04:09:36Z</time></trkpt>
<trkpt lat="2.910848" lon="101.687559">
<ele>25</ele>
<time>2026-06-10T04:10:50Z</time></trkpt>
<trkpt lat="2.911714" lon="101.686681">
<ele>22</ele>
<time>2026-06-10T04:11:39Z</time></trkpt>
<trkpt lat="2.912442" lon="101.685766">
<ele>35</ele>
<time>2026-06-10T04:12:26Z</time></trkpt>
<trkpt lat="2.913428" lon="101.686633">
<ele>27</ele>
<time>2026-06-10T04:13:19Z</time></trkpt>
<trkpt lat="2.914154" lon="101.687231">
<ele>32</ele>
<time>2026-06-10T04:13:56Z</time></trkpt>
<trkpt lat="2.914694" lon="101.687533">
<ele>36</ele>
<time>2026-06-10T04:14:21Z</time></trkpt>
<trkpt lat="2.914694" lon="101.687533">
<ele>36</ele>
<time>2026-06-10T04:14:21Z</time></trkpt>
<trkpt lat="2.915874" lon="101.688182">
<ele>41</ele>
<time>2026-06-10T04:15:15Z</time></trkpt>
<trkpt lat="2.916845" lon="101.688569">
<ele>43</ele>
<time>2026-06-10T04:15:57Z</time></trkpt>
<trkpt lat="2.917151" lon="101.688668">
<ele>43</ele>
<time>2026-06-10T04:16:10Z</time></trkpt>
</trkseg>
</trk>
</gpx>