<?xml version="1.0" encoding="UTF-8" standalone="no" ?>
<gpx xmlns="http://www.topografix.com/GPX/1/1" creator="www.plotaroute.com" version="1.1"  xmlns:xsi="http://www.w3.org/2001/XMLSchema-instance" xsi:schemaLocation="http://www.topografix.com/GPX/1/1 http://www.topografix.com/GPX/1/1/gpx.xsd">
<metadata>
<desc>Route created on plotaroute.com</desc>
</metadata>
<wpt lat="3.146683" lon="101.711212">
<time>2026-08-19T00:01:33Z</time>
<name>Turn right</name>
<cmt>Turn right onto Jalan Sultan Ismail and drive toward Mc Donald&#39;s Bukit Bintang</cmt>
<desc>Turn right onto Jalan Sultan Ismail and drive toward Mc Donald&#39;s Bukit Bintang</desc>
<sym>Right</sym>
<type>Waypoint</type>
</wpt>
<wpt lat="3.149545" lon="101.71098">
<time>2026-08-19T00:03:30Z</time>
<name>Keep left </name>
<cmt>Keep left onto Jalan Raja Chulan</cmt>
<desc>Keep left onto Jalan Raja Chulan</desc>
<sym>Left_slight</sym>
<type>Waypoint</type>
</wpt>
<wpt lat="3.150488" lon="101.708371">
<time>2026-08-19T00:05:24Z</time>
<name>Turn left </name>
<cmt>Turn left onto Jalan Raja Chulan</cmt>
<desc>Turn left onto Jalan Raja Chulan</desc>
<sym>Left</sym>
<type>Waypoint</type>
</wpt>
<wpt lat="3.148553" lon="101.699412">
<time>2026-08-19T00:11:40Z</time>
<name>Turn right</name>
<cmt>Turn right onto Jalan Gereja</cmt>
<desc>Turn right onto Jalan Gereja</desc>
<sym>Right</sym>
<type>Waypoint</type>
</wpt>
<wpt lat="3.149375" lon="101.698436">
<time>2026-08-19T00:12:31Z</time>
<name>Turn left </name>
<cmt>Turn left onto Jalan Tun H.S. Lee</cmt>
<desc>Turn left onto Jalan Tun H.S. Lee</desc>
<sym>Left</sym>
<type>Waypoint</type>
</wpt>
<wpt lat="3.14761" lon="101.696949">
<time>2026-08-19T00:14:03Z</time>
<name>Keep left </name>
<cmt>Keep left onto Jalan Tun H.S. Lee</cmt>
<desc>Keep left onto Jalan Tun H.S. Lee</desc>
<sym>Left_slight</sym>
<type>Waypoint</type>
</wpt>
<wpt lat="3.15573" lon="101.700766">
<time>2026-08-19T00:27:16Z</time>
<name>Turn left </name>
<cmt>Turn left onto Jalan Raja Abdullah</cmt>
<desc>Turn left onto Jalan Raja Abdullah</desc>
<sym>Left</sym>
<type>Waypoint</type>
</wpt>
<wpt lat="3.157441" lon="101.701293">
<time>2026-08-19T00:28:28Z</time>
<name>Turn sharp</name>
<cmt>Turn sharp right and take E12 toward Kuantan, Ampang, Hulu Kelang</cmt>
<desc>Turn sharp right and take E12 toward Kuantan, Ampang, Hulu Kelang</desc>
<sym>Right_sharp</sym>
<type>Waypoint</type>
</wpt>
<wpt lat="3.156296" lon="101.702749">
<time>2026-08-19T00:59:40Z</time>
<name>Turn left </name>
<cmt>Turn left onto Jalan Ampang</cmt>
<desc>Turn left onto Jalan Ampang</desc>
<sym>Left</sym>
<type>Waypoint</type>
</wpt>
<wpt lat="3.1568828" lon="101.7055092">
<time>2026-08-19T01:01:35Z</time>
<name>FINISH</name>
<cmt>FINISH</cmt>
<desc>FINISH</desc>
<sym>Flag, Blue</sym>
<type>Waypoint</type>
</wpt>
<wpt lat="3.1493029" lon="101.6942494">
<time>2026-08-19T00:00:00Z</time>
<name>Hydration </name>
<cmt>Hydration Station 1</cmt>
<desc>Hydration Station 1</desc>
<sym>Flag, Blue</sym>
<type>Waypoint</type>
</wpt>
<wpt lat="3.1628324" lon="101.7108692">
<time>2026-08-19T00:00:00Z</time>
<name>Hydration </name>
<cmt>Hydration Station 2</cmt>
<desc>Hydration Station 2</desc>
<sym>Flag, Blue</sym>
<type>Waypoint</type>
</wpt>
<wpt lat="3.1613812" lon="101.7096406">
<time>2026-08-19T00:00:00Z</time>
<name>Hydration </name>
<cmt>Hydration Station 3</cmt>
<desc>Hydration Station 3</desc>
<sym>Flag, Blue</sym>
<type>Waypoint</type>
</wpt>
<trk>
<name>MM 26 - 10KM (AFTER ROUTE MEASUREMENT)</name>
<trkseg>
<trkpt lat="3.1480418" lon="101.7130733">
<ele>60</ele>
<time>2026-08-19T00:00:00Z</time></trkpt>
<trkpt lat="3.148045" lon="101.713073">
<ele>59</ele>
<time>2026-08-19T00:00:00Z</time></trkpt>
<trkpt lat="3.148025" lon="101.712934">
<ele>60</ele>
<time>2026-08-19T00:00:06Z</time></trkpt>
<trkpt lat="3.147985" lon="101.712865">
<ele>60</ele>
<time>2026-08-19T00:00:09Z</time></trkpt>
<trkpt lat="3.147502" lon="101.712255">
<ele>64</ele>
<time>2026-08-19T00:00:40Z</time></trkpt>
<trkpt lat="3.146958" lon="101.7116">
<ele>62</ele>
<time>2026-08-19T00:01:14Z</time></trkpt>
<trkpt lat="3.146683" lon="101.711212">
<ele>61</ele>
<time>2026-08-19T00:01:33Z</time></trkpt>
<trkpt lat="3.146804" lon="101.711166">
<ele>61</ele>
<time>2026-08-19T00:01:38Z</time></trkpt>
<trkpt lat="3.147533" lon="101.710985">
<ele>61</ele>
<time>2026-08-19T00:02:09Z</time></trkpt>
<trkpt lat="3.147533" lon="101.710985">
<ele>61</ele>
<time>2026-08-19T00:02:09Z</time></trkpt>
<trkpt lat="3.147884" lon="101.710908">
<ele>69</ele>
<time>2026-08-19T00:02:23Z</time></trkpt>
<trkpt lat="3.148106" lon="101.710897">
<ele>74</ele>
<time>2026-08-19T00:02:32Z</time></trkpt>
<trkpt lat="3.148434" lon="101.710913">
<ele>75</ele>
<time>2026-08-19T00:02:45Z</time></trkpt>
<trkpt lat="3.149162" lon="101.711026">
<ele>53</ele>
<time>2026-08-19T00:03:14Z</time></trkpt>
<trkpt lat="3.149424" lon="101.711016">
<ele>57</ele>
<time>2026-08-19T00:03:25Z</time></trkpt>
<trkpt lat="3.149545" lon="101.71098">
<ele>59</ele>
<time>2026-08-19T00:03:30Z</time></trkpt>
<trkpt lat="3.149699" lon="101.710845">
<ele>62</ele>
<time>2026-08-19T00:03:38Z</time></trkpt>
<trkpt lat="3.149882" lon="101.710629">
<ele>65</ele>
<time>2026-08-19T00:03:50Z</time></trkpt>
<trkpt lat="3.15004" lon="101.71024">
<ele>70</ele>
<time>2026-08-19T00:04:06Z</time></trkpt>
<trkpt lat="3.150114" lon="101.709739">
<ele>65</ele>
<time>2026-08-19T00:04:27Z</time></trkpt>
<trkpt lat="3.15045" lon="101.708394">
<ele>59</ele>
<time>2026-08-19T00:05:22Z</time></trkpt>
<trkpt lat="3.150488" lon="101.708371">
<ele>58</ele>
<time>2026-08-19T00:05:24Z</time></trkpt>
<trkpt lat="3.150733" lon="101.70712">
<ele>56</ele>
<time>2026-08-19T00:06:15Z</time></trkpt>
<trkpt lat="3.150726" lon="101.706744">
<ele>54</ele>
<time>2026-08-19T00:06:30Z</time></trkpt>
<trkpt lat="3.150681" lon="101.7067">
<ele>54</ele>
<time>2026-08-19T00:06:33Z</time></trkpt>
<trkpt lat="3.150597" lon="101.706407">
<ele>57</ele>
<time>2026-08-19T00:06:45Z</time></trkpt>
<trkpt lat="3.150352" lon="101.705677">
<ele>63</ele>
<time>2026-08-19T00:07:16Z</time></trkpt>
<trkpt lat="3.150237" lon="101.705127">
<ele>63</ele>
<time>2026-08-19T00:07:38Z</time></trkpt>
<trkpt lat="3.150177" lon="101.704694">
<ele>64</ele>
<time>2026-08-19T00:07:56Z</time></trkpt>
<trkpt lat="3.150138" lon="101.70451">
<ele>65</ele>
<time>2026-08-19T00:08:03Z</time></trkpt>
<trkpt lat="3.149978" lon="101.703228">
<ele>64</ele>
<time>2026-08-19T00:08:55Z</time></trkpt>
<trkpt lat="3.149978" lon="101.703228">
<ele>64</ele>
<time>2026-08-19T00:08:55Z</time></trkpt>
<trkpt lat="3.14994" lon="101.703054">
<ele>63</ele>
<time>2026-08-19T00:09:02Z</time></trkpt>
<trkpt lat="3.149837" lon="101.702806">
<ele>61</ele>
<time>2026-08-19T00:09:13Z</time></trkpt>
<trkpt lat="3.149754" lon="101.702657">
<ele>59</ele>
<time>2026-08-19T00:09:19Z</time></trkpt>
<trkpt lat="3.149436" lon="101.702213">
<ele>55</ele>
<time>2026-08-19T00:09:41Z</time></trkpt>
<trkpt lat="3.149298" lon="101.701984">
<ele>52</ele>
<time>2026-08-19T00:09:52Z</time></trkpt>
<trkpt lat="3.149105" lon="101.701595">
<ele>47</ele>
<time>2026-08-19T00:10:09Z</time></trkpt>
<trkpt lat="3.148983" lon="101.701147">
<ele>48</ele>
<time>2026-08-19T00:10:28Z</time></trkpt>
<trkpt lat="3.14868" lon="101.69986">
<ele>50</ele>
<time>2026-08-19T00:11:21Z</time></trkpt>
<trkpt lat="3.148553" lon="101.699412">
<ele>51</ele>
<time>2026-08-19T00:11:40Z</time></trkpt>
<trkpt lat="3.148965" lon="101.698876">
<ele>56</ele>
<time>2026-08-19T00:12:07Z</time></trkpt>
<trkpt lat="3.149375" lon="101.698436">
<ele>48</ele>
<time>2026-08-19T00:12:31Z</time></trkpt>
<trkpt lat="3.149036" lon="101.698138">
<ele>44</ele>
<time>2026-08-19T00:12:49Z</time></trkpt>
<trkpt lat="3.149036" lon="101.698138">
<ele>44</ele>
<time>2026-08-19T00:12:49Z</time></trkpt>
<trkpt lat="3.148317" lon="101.697496">
<ele>41</ele>
<time>2026-08-19T00:13:27Z</time></trkpt>
<trkpt lat="3.147712" lon="101.697028">
<ele>41</ele>
<time>2026-08-19T00:13:58Z</time></trkpt>
<trkpt lat="3.147712" lon="101.697028">
<ele>41</ele>
<time>2026-08-19T00:13:58Z</time></trkpt>
<trkpt lat="3.14761" lon="101.696949">
<ele>42</ele>
<time>2026-08-19T00:14:03Z</time></trkpt>
<trkpt lat="3.147418" lon="101.696835">
<ele>42</ele>
<time>2026-08-19T00:14:12Z</time></trkpt>
<trkpt lat="3.147375" lon="101.696837">
<ele>42</ele>
<time>2026-08-19T00:14:14Z</time></trkpt>
<trkpt lat="3.147224" lon="101.697006">
<ele>42</ele>
<time>2026-08-19T00:14:23Z</time></trkpt>
<trkpt lat="3.147224" lon="101.697006">
<ele>42</ele>
<time>2026-08-19T00:14:23Z</time></trkpt>
<trkpt lat="3.147118" lon="101.697134">
<ele>42</ele>
<time>2026-08-19T00:14:30Z</time></trkpt>
<trkpt lat="3.1470406" lon="101.697138">
<ele>42</ele>
<time>2026-08-19T00:14:33Z</time></trkpt>
<trkpt lat="3.1469469" lon="101.6970307">
<ele>42</ele>
<time>2026-08-19T00:14:38Z</time></trkpt>
<trkpt lat="3.1468638" lon="101.6968483">
<ele>42</ele>
<time>2026-08-19T00:14:46Z</time></trkpt>
<trkpt lat="3.1468022" lon="101.6965908">
<ele>42</ele>
<time>2026-08-19T00:14:57Z</time></trkpt>
<trkpt lat="3.1468638" lon="101.6962475">
<ele>43</ele>
<time>2026-08-19T00:15:11Z</time></trkpt>
<trkpt lat="3.1469254" lon="101.6959604">
<ele>43</ele>
<time>2026-08-19T00:15:23Z</time></trkpt>
<trkpt lat="3.1470031" lon="101.69544">
<ele>42</ele>
<time>2026-08-19T00:15:44Z</time></trkpt>
<trkpt lat="3.1470647" lon="101.6949197">
<ele>40</ele>
<time>2026-08-19T00:16:05Z</time></trkpt>
<trkpt lat="3.147137" lon="101.6943779">
<ele>38</ele>
<time>2026-08-19T00:16:27Z</time></trkpt>
<trkpt lat="3.1472147" lon="101.6939595">
<ele>36</ele>
<time>2026-08-19T00:16:44Z</time></trkpt>
<trkpt lat="3.1475333" lon="101.6940052">
<ele>35</ele>
<time>2026-08-19T00:16:56Z</time></trkpt>
<trkpt lat="3.1478574" lon="101.6940668">
<ele>35</ele>
<time>2026-08-19T00:17:10Z</time></trkpt>
<trkpt lat="3.1482028" lon="101.6941124">
<ele>34</ele>
<time>2026-08-19T00:17:24Z</time></trkpt>
<trkpt lat="3.1485403" lon="101.6941715">
<ele>34</ele>
<time>2026-08-19T00:17:37Z</time></trkpt>
<trkpt lat="3.1488965" lon="101.6942305">
<ele>35</ele>
<time>2026-08-19T00:17:52Z</time></trkpt>
<trkpt lat="3.149258" lon="101.6943029">
<ele>34</ele>
<time>2026-08-19T00:18:07Z</time></trkpt>
<trkpt lat="3.149641" lon="101.6943834">
<ele>32</ele>
<time>2026-08-19T00:18:22Z</time></trkpt>
<trkpt lat="3.150024" lon="101.6944638">
<ele>30</ele>
<time>2026-08-19T00:18:38Z</time></trkpt>
<trkpt lat="3.1504123" lon="101.6945389">
<ele>32</ele>
<time>2026-08-19T00:18:54Z</time></trkpt>
<trkpt lat="3.150806" lon="101.6946113">
<ele>34</ele>
<time>2026-08-19T00:19:10Z</time></trkpt>
<trkpt lat="3.1510551" lon="101.6946569">
<ele>37</ele>
<time>2026-08-19T00:19:20Z</time></trkpt>
<trkpt lat="3.1512131" lon="101.6947401">
<ele>41</ele>
<time>2026-08-19T00:19:27Z</time></trkpt>
<trkpt lat="3.1511489" lon="101.6949305">
<ele>44</ele>
<time>2026-08-19T00:19:35Z</time></trkpt>
<trkpt lat="3.1510364" lon="101.6951237">
<ele>43</ele>
<time>2026-08-19T00:19:44Z</time></trkpt>
<trkpt lat="3.1510712" lon="101.6951826">
<ele>44</ele>
<time>2026-08-19T00:19:47Z</time></trkpt>
<trkpt lat="3.1513202" lon="101.695357">
<ele>46</ele>
<time>2026-08-19T00:19:59Z</time></trkpt>
<trkpt lat="3.1516041" lon="101.6955367">
<ele>46</ele>
<time>2026-08-19T00:20:13Z</time></trkpt>
<trkpt lat="3.1519201" lon="101.6957352">
<ele>43</ele>
<time>2026-08-19T00:20:28Z</time></trkpt>
<trkpt lat="3.1522442" lon="101.6959659">
<ele>42</ele>
<time>2026-08-19T00:20:43Z</time></trkpt>
<trkpt lat="3.1525682" lon="101.6961965">
<ele>42</ele>
<time>2026-08-19T00:20:59Z</time></trkpt>
<trkpt lat="3.152903" lon="101.6964192">
<ele>42</ele>
<time>2026-08-19T00:21:15Z</time></trkpt>
<trkpt lat="3.1531842" lon="101.6965694">
<ele>41</ele>
<time>2026-08-19T00:21:28Z</time></trkpt>
<trkpt lat="3.1535243" lon="101.6965774">
<ele>41</ele>
<time>2026-08-19T00:21:42Z</time></trkpt>
<trkpt lat="3.1539341" lon="101.6965184">
<ele>43</ele>
<time>2026-08-19T00:21:58Z</time></trkpt>
<trkpt lat="3.1543519" lon="101.6964486">
<ele>45</ele>
<time>2026-08-19T00:22:15Z</time></trkpt>
<trkpt lat="3.1547536" lon="101.6963735">
<ele>46</ele>
<time>2026-08-19T00:22:32Z</time></trkpt>
<trkpt lat="3.1551553" lon="101.6962904">
<ele>46</ele>
<time>2026-08-19T00:22:48Z</time></trkpt>
<trkpt lat="3.1555597" lon="101.6962206">
<ele>44</ele>
<time>2026-08-19T00:23:05Z</time></trkpt>
<trkpt lat="3.1559588" lon="101.6961348">
<ele>42</ele>
<time>2026-08-19T00:23:21Z</time></trkpt>
<trkpt lat="3.1563551" lon="101.696049">
<ele>43</ele>
<time>2026-08-19T00:23:37Z</time></trkpt>
<trkpt lat="3.1567702" lon="101.6959846">
<ele>45</ele>
<time>2026-08-19T00:23:54Z</time></trkpt>
<trkpt lat="3.1568319" lon="101.6960222">
<ele>44</ele>
<time>2026-08-19T00:23:57Z</time></trkpt>
<trkpt lat="3.1568801" lon="101.6961885">
<ele>44</ele>
<time>2026-08-19T00:24:04Z</time></trkpt>
<trkpt lat="3.1569524" lon="101.6965265">
<ele>43</ele>
<time>2026-08-19T00:24:18Z</time></trkpt>
<trkpt lat="3.1569605" lon="101.6968886">
<ele>42</ele>
<time>2026-08-19T00:24:32Z</time></trkpt>
<trkpt lat="3.1568935" lon="101.697256">
<ele>40</ele>
<time>2026-08-19T00:24:47Z</time></trkpt>
<trkpt lat="3.1567944" lon="101.6976155">
<ele>38</ele>
<time>2026-08-19T00:25:02Z</time></trkpt>
<trkpt lat="3.1566846" lon="101.6979937">
<ele>35</ele>
<time>2026-08-19T00:25:18Z</time></trkpt>
<trkpt lat="3.1565936" lon="101.6984282">
<ele>34</ele>
<time>2026-08-19T00:25:36Z</time></trkpt>
<trkpt lat="3.156596" lon="101.698428">
<ele>34</ele>
<time>2026-08-19T00:25:36Z</time></trkpt>
<trkpt lat="3.156376" lon="101.699433">
<ele>36</ele>
<time>2026-08-19T00:26:17Z</time></trkpt>
<trkpt lat="3.156276" lon="101.699694">
<ele>35</ele>
<time>2026-08-19T00:26:28Z</time></trkpt>
<trkpt lat="3.156276" lon="101.699694">
<ele>35</ele>
<time>2026-08-19T00:26:28Z</time></trkpt>
<trkpt lat="3.156197" lon="101.699872">
<ele>35</ele>
<time>2026-08-19T00:26:36Z</time></trkpt>
<trkpt lat="3.155918" lon="101.700383">
<ele>33</ele>
<time>2026-08-19T00:26:59Z</time></trkpt>
<trkpt lat="3.15573" lon="101.700766">
<ele>34</ele>
<time>2026-08-19T00:27:16Z</time></trkpt>
<trkpt lat="3.156885" lon="101.701122">
<ele>33</ele>
<time>2026-08-19T00:28:05Z</time></trkpt>
<trkpt lat="3.156885" lon="101.701122">
<ele>33</ele>
<time>2026-08-19T00:28:05Z</time></trkpt>
<trkpt lat="3.157441" lon="101.701293">
<ele>33</ele>
<time>2026-08-19T00:28:28Z</time></trkpt>
<trkpt lat="3.157376" lon="101.701385">
<ele>32</ele>
<time>2026-08-19T00:28:33Z</time></trkpt>
<trkpt lat="3.15731" lon="101.70149">
<ele>32</ele>
<time>2026-08-19T00:28:38Z</time></trkpt>
<trkpt lat="3.157293" lon="101.701586">
<ele>31</ele>
<time>2026-08-19T00:28:41Z</time></trkpt>
<trkpt lat="3.157308" lon="101.701625">
<ele>31</ele>
<time>2026-08-19T00:28:43Z</time></trkpt>
<trkpt lat="3.157784" lon="101.702113">
<ele>30</ele>
<time>2026-08-19T00:29:10Z</time></trkpt>
<trkpt lat="3.158302" lon="101.702614">
<ele>29</ele>
<time>2026-08-19T00:29:39Z</time></trkpt>
<trkpt lat="3.159365" lon="101.703508">
<ele>33</ele>
<time>2026-08-19T00:30:35Z</time></trkpt>
<trkpt lat="3.159365" lon="101.703508">
<ele>33</ele>
<time>2026-08-19T00:30:35Z</time></trkpt>
<trkpt lat="3.15983" lon="101.703903">
<ele>31</ele>
<time>2026-08-19T00:30:59Z</time></trkpt>
<trkpt lat="3.160079" lon="101.704159">
<ele>28</ele>
<time>2026-08-19T00:31:14Z</time></trkpt>
<trkpt lat="3.160317" lon="101.704444">
<ele>31</ele>
<time>2026-08-19T00:31:28Z</time></trkpt>
<trkpt lat="3.16063" lon="101.704932">
<ele>34</ele>
<time>2026-08-19T00:31:52Z</time></trkpt>
<trkpt lat="3.16074" lon="101.705284">
<ele>36</ele>
<time>2026-08-19T00:32:06Z</time></trkpt>
<trkpt lat="3.16084" lon="101.705675">
<ele>37</ele>
<time>2026-08-19T00:32:23Z</time></trkpt>
<trkpt lat="3.160969" lon="101.706386">
<ele>38</ele>
<time>2026-08-19T00:32:52Z</time></trkpt>
<trkpt lat="3.161131" lon="101.70776">
<ele>40</ele>
<time>2026-08-19T00:33:47Z</time></trkpt>
<trkpt lat="3.161219" lon="101.708206">
<ele>39</ele>
<time>2026-08-19T00:34:05Z</time></trkpt>
<trkpt lat="3.161367" lon="101.708573">
<ele>37</ele>
<time>2026-08-19T00:34:21Z</time></trkpt>
<trkpt lat="3.161585" lon="101.709002">
<ele>34</ele>
<time>2026-08-19T00:34:40Z</time></trkpt>
<trkpt lat="3.163141" lon="101.711458">
<ele>37</ele>
<time>2026-08-19T00:36:37Z</time></trkpt>
<trkpt lat="3.164041" lon="101.712976">
<ele>33</ele>
<time>2026-08-19T00:37:47Z</time></trkpt>
<trkpt lat="3.165214" lon="101.715163">
<ele>32</ele>
<time>2026-08-19T00:39:27Z</time></trkpt>
<trkpt lat="3.165785" lon="101.716426">
<ele>35</ele>
<time>2026-08-19T00:40:22Z</time></trkpt>
<trkpt lat="3.165968" lon="101.716969">
<ele>37</ele>
<time>2026-08-19T00:40:45Z</time></trkpt>
<trkpt lat="3.166117" lon="101.71758">
<ele>39</ele>
<time>2026-08-19T00:41:10Z</time></trkpt>
<trkpt lat="3.166183" lon="101.718049">
<ele>38</ele>
<time>2026-08-19T00:41:29Z</time></trkpt>
<trkpt lat="3.166216" lon="101.718476">
<ele>37</ele>
<time>2026-08-19T00:41:46Z</time></trkpt>
<trkpt lat="3.166213" lon="101.718825">
<ele>36</ele>
<time>2026-08-19T00:42:00Z</time></trkpt>
<trkpt lat="3.166129" lon="101.719866">
<ele>37</ele>
<time>2026-08-19T00:42:42Z</time></trkpt>
<trkpt lat="3.166087" lon="101.720171">
<ele>37</ele>
<time>2026-08-19T00:42:54Z</time></trkpt>
<trkpt lat="3.166033" lon="101.720438">
<ele>37</ele>
<time>2026-08-19T00:43:05Z</time></trkpt>
<trkpt lat="3.165965" lon="101.720676">
<ele>37</ele>
<time>2026-08-19T00:43:15Z</time></trkpt>
<trkpt lat="3.165904" lon="101.720858">
<ele>37</ele>
<time>2026-08-19T00:43:23Z</time></trkpt>
<trkpt lat="3.165726" lon="101.721285">
<ele>39</ele>
<time>2026-08-19T00:43:41Z</time></trkpt>
<trkpt lat="3.165726" lon="101.721285">
<ele>39</ele>
<time>2026-08-19T00:43:41Z</time></trkpt>
<trkpt lat="3.16557" lon="101.721645">
<ele>41</ele>
<time>2026-08-19T00:43:57Z</time></trkpt>
<trkpt lat="3.1651797" lon="101.7215192">
<ele>40</ele>
<time>2026-08-19T00:44:13Z</time></trkpt>
<trkpt lat="3.1652626" lon="101.7212724">
<ele>40</ele>
<time>2026-08-19T00:44:24Z</time></trkpt>
<trkpt lat="3.1653805" lon="101.7210149">
<ele>40</ele>
<time>2026-08-19T00:44:35Z</time></trkpt>
<trkpt lat="3.1654903" lon="101.7207387">
<ele>39</ele>
<time>2026-08-19T00:44:47Z</time></trkpt>
<trkpt lat="3.165485" lon="101.720737">
<ele>39</ele>
<time>2026-08-19T00:44:47Z</time></trkpt>
<trkpt lat="3.165689" lon="101.72021">
<ele>37</ele>
<time>2026-08-19T00:45:10Z</time></trkpt>
<trkpt lat="3.165813" lon="101.719681">
<ele>35</ele>
<time>2026-08-19T00:45:32Z</time></trkpt>
<trkpt lat="3.165859" lon="101.719273">
<ele>34</ele>
<time>2026-08-19T00:45:48Z</time></trkpt>
<trkpt lat="3.165906" lon="101.718023">
<ele>36</ele>
<time>2026-08-19T00:46:38Z</time></trkpt>
<trkpt lat="3.165881" lon="101.717732">
<ele>36</ele>
<time>2026-08-19T00:46:50Z</time></trkpt>
<trkpt lat="3.165805" lon="101.717299">
<ele>36</ele>
<time>2026-08-19T00:47:07Z</time></trkpt>
<trkpt lat="3.165736" lon="101.717005">
<ele>36</ele>
<time>2026-08-19T00:47:20Z</time></trkpt>
<trkpt lat="3.165549" lon="101.716445">
<ele>35</ele>
<time>2026-08-19T00:47:43Z</time></trkpt>
<trkpt lat="3.165215" lon="101.715737">
<ele>30</ele>
<time>2026-08-19T00:48:14Z</time></trkpt>
<trkpt lat="3.164863" lon="101.71489">
<ele>32</ele>
<time>2026-08-19T00:48:51Z</time></trkpt>
<trkpt lat="3.164297" lon="101.713806">
<ele>32</ele>
<time>2026-08-19T00:49:40Z</time></trkpt>
<trkpt lat="3.163851" lon="101.713156">
<ele>33</ele>
<time>2026-08-19T00:50:12Z</time></trkpt>
<trkpt lat="3.162871" lon="101.711915">
<ele>40</ele>
<time>2026-08-19T00:51:15Z</time></trkpt>
<trkpt lat="3.161739" lon="101.710186">
<ele>50</ele>
<time>2026-08-19T00:52:38Z</time></trkpt>
<trkpt lat="3.161474" lon="101.709751">
<ele>40</ele>
<time>2026-08-19T00:52:58Z</time></trkpt>
<trkpt lat="3.161238" lon="101.709309">
<ele>34</ele>
<time>2026-08-19T00:53:18Z</time></trkpt>
<trkpt lat="3.161042" lon="101.708849">
<ele>36</ele>
<time>2026-08-19T00:53:38Z</time></trkpt>
<trkpt lat="3.160943" lon="101.708545">
<ele>39</ele>
<time>2026-08-19T00:53:51Z</time></trkpt>
<trkpt lat="3.160866" lon="101.70824">
<ele>43</ele>
<time>2026-08-19T00:54:04Z</time></trkpt>
<trkpt lat="3.160778" lon="101.707771">
<ele>45</ele>
<time>2026-08-19T00:54:23Z</time></trkpt>
<trkpt lat="3.160559" lon="101.706038">
<ele>41</ele>
<time>2026-08-19T00:55:33Z</time></trkpt>
<trkpt lat="3.160422" lon="101.705546">
<ele>39</ele>
<time>2026-08-19T00:55:53Z</time></trkpt>
<trkpt lat="3.160248" lon="101.70512">
<ele>36</ele>
<time>2026-08-19T00:56:11Z</time></trkpt>
<trkpt lat="3.160031" lon="101.704706">
<ele>32</ele>
<time>2026-08-19T00:56:30Z</time></trkpt>
<trkpt lat="3.159783" lon="101.704346">
<ele>30</ele>
<time>2026-08-19T00:56:48Z</time></trkpt>
<trkpt lat="3.159595" lon="101.704155">
<ele>30</ele>
<time>2026-08-19T00:56:58Z</time></trkpt>
<trkpt lat="3.1594" lon="101.703983">
<ele>31</ele>
<time>2026-08-19T00:57:09Z</time></trkpt>
<trkpt lat="3.158588" lon="101.703349">
<ele>37</ele>
<time>2026-08-19T00:57:50Z</time></trkpt>
<trkpt lat="3.1581" lon="101.702943">
<ele>32</ele>
<time>2026-08-19T00:58:15Z</time></trkpt>
<trkpt lat="3.157624" lon="101.70253">
<ele>30</ele>
<time>2026-08-19T00:58:41Z</time></trkpt>
<trkpt lat="3.15746" lon="101.70244">
<ele>30</ele>
<time>2026-08-19T00:58:48Z</time></trkpt>
<trkpt lat="3.157269" lon="101.702413">
<ele>28</ele>
<time>2026-08-19T00:58:56Z</time></trkpt>
<trkpt lat="3.156727" lon="101.702429">
<ele>24</ele>
<time>2026-08-19T00:59:18Z</time></trkpt>
<trkpt lat="3.156635" lon="101.702435">
<ele>25</ele>
<time>2026-08-19T00:59:21Z</time></trkpt>
<trkpt lat="3.156537" lon="101.702479">
<ele>27</ele>
<time>2026-08-19T00:59:26Z</time></trkpt>
<trkpt lat="3.156458" lon="101.702529">
<ele>30</ele>
<time>2026-08-19T00:59:29Z</time></trkpt>
<trkpt lat="3.156381" lon="101.702605">
<ele>35</ele>
<time>2026-08-19T00:59:34Z</time></trkpt>
<trkpt lat="3.156296" lon="101.702749">
<ele>41</ele>
<time>2026-08-19T00:59:40Z</time></trkpt>
<trkpt lat="3.156357" lon="101.702883">
<ele>41</ele>
<time>2026-08-19T00:59:46Z</time></trkpt>
<trkpt lat="3.156357" lon="101.702883">
<ele>41</ele>
<time>2026-08-19T00:59:46Z</time></trkpt>
<trkpt lat="3.156419" lon="101.703052">
<ele>43</ele>
<time>2026-08-19T00:59:54Z</time></trkpt>
<trkpt lat="3.156472" lon="101.703259">
<ele>45</ele>
<time>2026-08-19T01:00:02Z</time></trkpt>
<trkpt lat="3.156596" lon="101.70383">
<ele>41</ele>
<time>2026-08-19T01:00:25Z</time></trkpt>
<trkpt lat="3.156606" lon="101.704037">
<ele>41</ele>
<time>2026-08-19T01:00:34Z</time></trkpt>
<trkpt lat="3.156585" lon="101.704311">
<ele>41</ele>
<time>2026-08-19T01:00:45Z</time></trkpt>
<trkpt lat="3.156585" lon="101.704311">
<ele>41</ele>
<time>2026-08-19T01:00:45Z</time></trkpt>
<trkpt lat="3.156574" lon="101.704557">
<ele>42</ele>
<time>2026-08-19T01:00:55Z</time></trkpt>
<trkpt lat="3.1566471" lon="101.7049459">
<ele>42</ele>
<time>2026-08-19T01:01:10Z</time></trkpt>
<trkpt lat="3.1568828" lon="101.7055092">
<ele>36</ele>
<time>2026-08-19T01:01:35Z</time></trkpt>
</trkseg>
</trk>
</gpx>